{"features":[{"geometry":{"coordinates":[[[135.3309265449367,35.441846990885765],[135.33088375965892,35.44186613327254],[135.3308446966729,35.4417947977296],[135.33078187068617,35.441680153100975],[135.330624427451,35.44169866035316],[135.3306482025837,35.44183373069243],[135.3304779099618,35.441854067327],[135.3304419411285,35.44164862287868],[135.33074464794376,35.44161279385138],[135.3307311070408,35.44158531626108],[135.3307149675446,35.441552506386394],[135.33075428170585,35.44154010522262],[135.3308006935696,35.44152188414863],[135.33084648217795,35.44160569617451],[135.33090039682293,35.44159932479862],[135.33091196391499,35.44166564175738],[135.33088241617045,35.441669082674444],[135.33092609737358,35.44175459619781],[135.33096658858003,35.44182639076332],[135.3309265449367,35.441846990885765]]],"type":"Polygon"},"id":"bldg_155e6675-6981-450f-8e73-df0b43418cc2","properties":{"geometry_source":"lod0_roof_edge_projection","object_id":"bldg_155e6675-6981-450f-8e73-df0b43418cc2","object_type":"building","source_member":"udx/bldg/53351236_bldg_6697_op.gml","source_member_crc32":"c0d36f0a","usage_code":"431","usage_label":"運輸倉庫施設"},"type":"Feature"},{"geometry":{"coordinates":[[[135.33072070578658,35.44166666666523],[135.3307110419765,35.4416167629429],[135.33065644132378,35.44133478548474],[135.33089151767948,35.44130129507844],[135.3309254387152,35.44148817820802],[135.330932150587,35.44149843743585],[135.3313896709164,35.44150577601466],[135.33142861387583,35.44150640288043],[135.33142599410013,35.44161539692887],[135.33136378463234,35.441612528274455],[135.331185334644,35.441614154246516],[135.3311733118286,35.44161607043301],[135.33116480833456,35.441618727378476],[135.33115375166264,35.4416238041013],[135.3311430108241,35.44163068545772],[135.33113579542055,35.44163740589043],[135.3311286790834,35.441645478622654],[135.33112088320138,35.44165589183514],[135.33111596007953,35.44166666666523],[135.33111504973348,35.44166865906438],[135.33111331755268,35.44167829437927],[135.33111346721358,35.44168685849894],[135.33112136099447,35.44173125033839],[135.3311305712131,35.44177628050746],[135.3311345203991,35.44179153585519],[135.3311380844364,35.44180011889022],[135.33114187576018,35.44180780146692],[135.33114721281282,35.44181522247652],[135.33115354247832,35.44182219840104],[135.33116164143183,35.44182846286275],[135.33117205658698,35.44183438034828],[135.3311838083203,35.441838500701756],[135.33119359471655,35.4418405382524],[135.33120977483233,35.44184188995563],[135.33142138772277,35.44183945620448],[135.33141313403186,35.44201885200281],[135.33103000359657,35.442007046586944],[135.3310268643291,35.442036342437426],[135.33079761898185,35.44206386203169],[135.3307246211547,35.44168688554815],[135.33072070578658,35.44166666666523]]],"type":"Polygon"},"id":"tran_46c7e1e5-07ba-424d-ba29-2ae7f0464a21:0","properties":{"function_code":"4","object_id":"tran_46c7e1e5-07ba-424d-ba29-2ae7f0464a21","object_type":"road","road_class":"1040","road_name":null,"source_member":"udx/tran/53351236_tran_6697_op.gml","source_member_crc32":"1afae533","surface_id":"tran_46c7e1e5-07ba-424d-ba29-2ae7f0464a21:0","surface_index":0,"usage_code":null},"type":"Feature"}],"type":"FeatureCollection"}
