{"type":"FeatureCollection","features":[{"type":"Feature","properties":{"id":"bus-001","name":"おおしあま展望の里","operator":"京都交通（株）","routes":["45・46三浜線"],"source_year":2022},"geometry":{"type":"Point","coordinates":[135.3973424798356,35.54119471783277]},"id":"bus-001"},{"type":"Feature","properties":{"id":"bus-002","name":"さくらどおりマンション前","operator":"京都交通（株）","routes":["41・42田井・野原線,45・46三浜線,47・48朝来循環線"],"source_year":2022},"geometry":{"type":"Point","coordinates":[135.39958038036735,35.49309890841409]},"id":"bus-002"},{"type":"Feature","properties":{"id":"bus-003","name":"ふじつ温泉前","operator":"京都交通（株）","routes":["61・62大江線1,66大江線3（加佐楽々）"],"source_year":2022},"geometry":{"type":"Point","coordinates":[135.27956080740728,35.44908052352406]},"id":"bus-003"},{"type":"Feature","properties":{"id":"bus-004","name":"オーナミ前","operator":"京都交通（株）","routes":["11・12市内線（造船）,21・22市内線（造船）"],"source_year":2022},"geometry":{"type":"Point","coordinates":[135.3701456463157,35.48069575922246]},"id":"bus-004"},{"type":"Feature","properties":{"id":"bus-005","name":"一盃水","operator":"京都交通（株）","routes":["61・62大江線1,66大江線3（加佐楽々）"],"source_year":2022},"geometry":{"type":"Point","coordinates":[135.28580048763092,35.448243720814894]},"id":"bus-005"},{"type":"Feature","properties":{"id":"bus-006","name":"七条","operator":"京都交通（株）","routes":["11・12市内線（造船）,13市内線（合同庁舎線）,31・32高浜線,33市場循環線,41・42田井・野原線,45・46三浜線,47・48朝来循環線,71・72常・溝尻線"],"source_year":2022},"geometry":{"type":"Point","coordinates":[135.3960363409851,35.47521607599269]},"id":"bus-006"},{"type":"Feature","properties":{"id":"bus-007","name":"三宅団地前","operator":"京都交通（株）","routes":["10東西循環線,11・12市内線（造船）,13市内線（合同庁舎線）,51・52和田線,53長浜循環線"],"source_year":2022},"geometry":{"type":"Point","coordinates":[135.38149192473693,35.47449279062107]},"id":"bus-007"},{"type":"Feature","properties":{"id":"bus-008","name":"三浜","operator":"京都交通（株）","routes":["45・46三浜線"],"source_year":2022},"geometry":{"type":"Point","coordinates":[135.39486254139422,35.55732578247027]},"id":"bus-008"},{"type":"Feature","properties":{"id":"bus-009","name":"上四丁目","operator":"京都交通（株）","routes":["10東西循環線,21・22市内線（造船）,13市内線（合同庁舎線）,15市内線（西高線）"],"source_year":2022},"geometry":{"type":"Point","coordinates":[135.36647096609352,35.472789629569306]},"id":"bus-009"},{"type":"Feature","properties":{"id":"bus-010","name":"上地橋","operator":"京都交通（株）","routes":["71・72常・溝尻線"],"source_year":2022},"geometry":{"type":"Point","coordinates":[135.3972182063972,35.45410697578766]},"id":"bus-010"},{"type":"Feature","properties":{"id":"bus-011","name":"上安","operator":"京都交通（株）","routes":["10東西循環線,21・22市内線（造船）,13市内線（合同庁舎線）,15市内線（西高線）"],"source_year":2022},"geometry":{"type":"Point","coordinates":[135.3475295108074,35.452041295590064]},"id":"bus-011"},{"type":"Feature","properties":{"id":"bus-012","name":"上福井","operator":"京都交通（株）","routes":["61・62大江線1,66大江線3（加佐楽々）"],"source_year":2022},"geometry":{"type":"Point","coordinates":[135.29586443165414,35.44540237243847]},"id":"bus-012"},{"type":"Feature","properties":{"id":"bus-013","name":"下四丁目","operator":"京都交通（株）","routes":["51・52和田線,53長浜循環線"],"source_year":2022},"geometry":{"type":"Point","coordinates":[135.36335746129976,35.47793621713565]},"id":"bus-013"},{"type":"Feature","properties":{"id":"bus-014","name":"下福井","operator":"京都交通（株）","routes":["61・62大江線1,63・64大江線2（福井小学校口止）,66大江線3（加佐楽々）"],"source_year":2022},"geometry":{"type":"Point","coordinates":[135.31270259400358,35.44922676315348]},"id":"bus-014"},{"type":"Feature","properties":{"id":"bus-015","name":"与保呂小学校前","operator":"京都交通（株）","routes":["71・72常・溝尻線"],"source_year":2022},"geometry":{"type":"Point","coordinates":[135.41502423636246,35.449079691819584]},"id":"bus-015"},{"type":"Feature","properties":{"id":"bus-016","name":"中宮","operator":"京都交通（株）","routes":["47・48朝来循環線"],"source_year":2022},"geometry":{"type":"Point","coordinates":[135.42663555166814,35.50073987336227]},"id":"bus-016"},{"type":"Feature","properties":{"id":"bus-017","name":"中山","operator":"京都交通（株）","routes":["47・48朝来循環線"],"source_year":2022},"geometry":{"type":"Point","coordinates":[135.4364986723401,35.49223240770178]},"id":"bus-017"},{"type":"Feature","properties":{"id":"bus-018","name":"中田","operator":"京都交通（株）","routes":["41・42田井・野原線,45・46三浜線"],"source_year":2022},"geometry":{"type":"Point","coordinates":[135.40151239686122,35.51329422207725]},"id":"bus-018"},{"type":"Feature","properties":{"id":"bus-019","name":"中町","operator":"京都交通（株）","routes":["71・72常・溝尻線"],"source_year":2022},"geometry":{"type":"Point","coordinates":[135.40388862160202,35.470133627464165]},"id":"bus-019"},{"type":"Feature","properties":{"id":"bus-020","name":"中筋小学校口","operator":"京都交通（株）","routes":["55・56真倉線"],"source_year":2022},"geometry":{"type":"Point","coordinates":[135.32815646054723,35.43152599124903]},"id":"bus-020"},{"type":"Feature","properties":{"id":"bus-021","name":"中舞鶴","operator":"京都交通（株）","routes":["10東西循環線,21・22市内線（造船）,13市内線（合同庁舎線）,15市内線（西高線）,51・52和田線,53長浜循環線"],"source_year":2022},"geometry":{"type":"Point","coordinates":[135.36740184995298,35.47644674289652]},"id":"bus-021"},{"type":"Feature","properties":{"id":"bus-022","name":"丸山口","operator":"京都交通（株）","routes":["10東西循環線"],"source_year":2022},"geometry":{"type":"Point","coordinates":[135.39119580238685,35.46132815883991]},"id":"bus-022"},{"type":"Feature","properties":{"id":"bus-023","name":"久原口","operator":"京都交通（株）","routes":["47・48朝来循環線"],"source_year":2022},"geometry":{"type":"Point","coordinates":[135.40974555800284,35.50157231596469]},"id":"bus-023"},{"type":"Feature","properties":{"id":"bus-024","name":"二尾","operator":"京都交通（株）","routes":["51・52和田線"],"source_year":2022},"geometry":{"type":"Point","coordinates":[135.32999731455052,35.46393842489301]},"id":"bus-024"},{"type":"Feature","properties":{"id":"bus-025","name":"五老トンネル西口","operator":"京都交通（株）","routes":["10東西循環線,21・22市内線（造船）,13市内線（合同庁舎線）,15市内線（西高線）"],"source_year":2022},"geometry":{"type":"Point","coordinates":[135.35118909261345,35.457262605955506]},"id":"bus-025"},{"type":"Feature","properties":{"id":"bus-026","name":"五老ヶ岳公園口","operator":"京都交通（株）","routes":["10東西循環線,21・22市内線（造船）,13市内線（合同庁舎線）,15市内線（西高線）"],"source_year":2022},"geometry":{"type":"Point","coordinates":[135.35846858757625,35.46161540083066]},"id":"bus-026"},{"type":"Feature","properties":{"id":"bus-027","name":"京田","operator":"京都交通（株）","routes":["55・56真倉線"],"source_year":2022},"geometry":{"type":"Point","coordinates":[135.3294981509221,35.42269345060412]},"id":"bus-027"},{"type":"Feature","properties":{"id":"bus-028","name":"倉谷","operator":"京都交通（株）","routes":["10東西循環線"],"source_year":2022},"geometry":{"type":"Point","coordinates":[135.34207561137268,35.445190820493075]},"id":"bus-028"},{"type":"Feature","properties":{"id":"bus-029","name":"倉谷口","operator":"京都交通（株）","routes":["10東西循環線,21・22市内線（造船）,13市内線（合同庁舎線）,15市内線（西高線）"],"source_year":2022},"geometry":{"type":"Point","coordinates":[135.3428476732657,35.45074476876585]},"id":"bus-029"},{"type":"Feature","properties":{"id":"bus-030","name":"倉谷西","operator":"京都交通（株）","routes":["10東西循環線"],"source_year":2022},"geometry":{"type":"Point","coordinates":[135.33994910934237,35.44517995738024]},"id":"bus-030"},{"type":"Feature","properties":{"id":"bus-031","name":"八田・由良川学園前","operator":"京都交通（株）","routes":["61・62大江線1,66大江線3（加佐楽々）"],"source_year":2022},"geometry":{"type":"Point","coordinates":[135.2650188039128,35.452275629122546]},"id":"bus-031"},{"type":"Feature","properties":{"id":"bus-032","name":"共済病院前","operator":"京都交通（株）","routes":["10東西循環線,71・72常・溝尻線"],"source_year":2022},"geometry":{"type":"Point","coordinates":[135.39224144129102,35.468550232218355]},"id":"bus-032"},{"type":"Feature","properties":{"id":"bus-033","name":"加佐分室前","operator":"京都交通（株）","routes":["61・62大江線1"],"source_year":2022},"geometry":{"type":"Point","coordinates":[135.2475953307995,35.428745852862775]},"id":"bus-033"},{"type":"Feature","properties":{"id":"bus-034","name":"加津良","operator":"京都交通（株）","routes":["51・52和田線"],"source_year":2022},"geometry":{"type":"Point","coordinates":[135.35143712452344,35.48184339092621]},"id":"bus-034"},{"type":"Feature","properties":{"id":"bus-035","name":"加津良上","operator":"京都交通（株）","routes":["51・52和田線"],"source_year":2022},"geometry":{"type":"Point","coordinates":[135.3544257316561,35.48126960815541]},"id":"bus-035"},{"type":"Feature","properties":{"id":"bus-036","name":"千日前","operator":"京都交通（株）","routes":["10東西循環線,21・22市内線（造船）,15市内線（西高線）,51・52和田線,61・62大江線1,63・64大江線2（福井小学校口止）,66大江線3（加佐楽々）"],"source_year":2022},"geometry":{"type":"Point","coordinates":[135.32852002228674,35.445190658955035]},"id":"bus-036"},{"type":"Feature","properties":{"id":"bus-037","name":"南銀座","operator":"京都交通（株）","routes":["10東西循環線,71・72常・溝尻線"],"source_year":2022},"geometry":{"type":"Point","coordinates":[135.3948104837565,35.46371737175149]},"id":"bus-037"},{"type":"Feature","properties":{"id":"bus-038","name":"原","operator":"京都交通（株）","routes":["41・42田井・野原線"],"source_year":2022},"geometry":{"type":"Point","coordinates":[135.42478411613988,35.52836783507752]},"id":"bus-038"},{"type":"Feature","properties":{"id":"bus-039","name":"合同庁舎前","operator":"京都交通（株）","routes":["13市内線（合同庁舎線）,61・62大江線1,63・64大江線2（福井小学校口止）,66大江線3（加佐楽々）"],"source_year":2022},"geometry":{"type":"Point","coordinates":[135.31757718679557,35.450235844229624]},"id":"bus-039"},{"type":"Feature","properties":{"id":"bus-040","name":"吉原小学校前","operator":"京都交通（株）","routes":["51・52和田線"],"source_year":2022},"geometry":{"type":"Point","coordinates":[135.32809872747444,35.45608683726802]},"id":"bus-040"},{"type":"Feature","properties":{"id":"bus-041","name":"吉坂","operator":"京都交通（株）","routes":["31・32高浜線"],"source_year":2022},"geometry":{"type":"Point","coordinates":[135.4596699205416,35.48592550403315]},"id":"bus-041"},{"type":"Feature","properties":{"id":"bus-042","name":"和田","operator":"京都交通（株）","routes":["51・52和田線"],"source_year":2022},"geometry":{"type":"Point","coordinates":[135.34824148127092,35.476586038186]},"id":"bus-042"},{"type":"Feature","properties":{"id":"bus-043","name":"四所","operator":"京都交通（株）","routes":["61・62大江線1,66大江線3（加佐楽々）"],"source_year":2022},"geometry":{"type":"Point","coordinates":[135.2907288508352,35.44757782165487]},"id":"bus-043"},{"type":"Feature","properties":{"id":"bus-044","name":"国立高専前","operator":"京都交通（株）","routes":["47・48朝来循環線"],"source_year":2022},"geometry":{"type":"Point","coordinates":[135.43808847489777,35.49481517694644]},"id":"bus-044"},{"type":"Feature","properties":{"id":"bus-045","name":"地頭","operator":"京都交通（株）","routes":["61・62大江線1"],"source_year":2022},"geometry":{"type":"Point","coordinates":[135.2156918020242,35.42554313366189]},"id":"bus-045"},{"type":"Feature","properties":{"id":"bus-046","name":"地頭下","operator":"京都交通（株）","routes":["61・62大江線1"],"source_year":2022},"geometry":{"type":"Point","coordinates":[135.22244895575633,35.42815909210613]},"id":"bus-046"},{"type":"Feature","properties":{"id":"bus-047","name":"城南中学校前","operator":"京都交通（株）","routes":["55・56真倉線"],"source_year":2022},"geometry":{"type":"Point","coordinates":[135.3283043041391,35.427335399882196]},"id":"bus-047"},{"type":"Feature","properties":{"id":"bus-048","name":"堂の奥","operator":"京都交通（株）","routes":["71・72常・溝尻線"],"source_year":2022},"geometry":{"type":"Point","coordinates":[135.41908119175991,35.464346628743485]},"id":"bus-048"},{"type":"Feature","properties":{"id":"bus-049","name":"大山","operator":"京都交通（株）","routes":["41・42田井・野原線"],"source_year":2022},"geometry":{"type":"Point","coordinates":[135.4506664170051,35.5488652615831]},"id":"bus-049"},{"type":"Feature","properties":{"id":"bus-050","name":"大川","operator":"京都交通（株）","routes":["61・62大江線1"],"source_year":2022},"geometry":{"type":"Point","coordinates":[135.26142918864454,35.447574275782024]},"id":"bus-050"},{"type":"Feature","properties":{"id":"bus-051","name":"大森町","operator":"京都交通（株）","routes":["51・52和田線"],"source_year":2022},"geometry":{"type":"Point","coordinates":[135.32802015846266,35.45396708799361]},"id":"bus-051"},{"type":"Feature","properties":{"id":"bus-052","name":"大森神社前","operator":"京都交通（株）","routes":["10東西循環線"],"source_year":2022},"geometry":{"type":"Point","coordinates":[135.39503697019518,35.46156017799403]},"id":"bus-052"},{"type":"Feature","properties":{"id":"bus-053","name":"大波上","operator":"京都交通（株）","routes":["47・48朝来循環線"],"source_year":2022},"geometry":{"type":"Point","coordinates":[135.41761015251032,35.503337777623265]},"id":"bus-053"},{"type":"Feature","properties":{"id":"bus-054","name":"大波下","operator":"京都交通（株）","routes":["41・42田井・野原線,45・46三浜線,47・48朝来循環線"],"source_year":2022},"geometry":{"type":"Point","coordinates":[135.4031038465501,35.50123037626287]},"id":"bus-054"},{"type":"Feature","properties":{"id":"bus-055","name":"大浦小学校前","operator":"京都交通（株）","routes":["41・42田井・野原線,45・46三浜線"],"source_year":2022},"geometry":{"type":"Point","coordinates":[135.39768265790588,35.517377162474254]},"id":"bus-055"},{"type":"Feature","properties":{"id":"bus-056","name":"大門通三条","operator":"京都交通（株）","routes":["10東西循環線,11・12市内線（造船）,13市内線（合同庁舎線）,51・52和田線,53長浜循環線"],"source_year":2022},"geometry":{"type":"Point","coordinates":[135.39198016745388,35.47425250073571]},"id":"bus-056"},{"type":"Feature","properties":{"id":"bus-057","name":"天台","operator":"京都交通（株）","routes":["10東西循環線"],"source_year":2022},"geometry":{"type":"Point","coordinates":[135.3575850879933,35.45303268261901]},"id":"bus-057"},{"type":"Feature","properties":{"id":"bus-058","name":"安全祈願碑前","operator":"京都交通（株）","routes":["11・12市内線（造船）,21・22市内線（造船）"],"source_year":2022},"geometry":{"type":"Point","coordinates":[135.370438178222,35.477675555535626]},"id":"bus-058"},{"type":"Feature","properties":{"id":"bus-059","name":"安岡","operator":"京都交通（株）","routes":["47・48朝来循環線"],"source_year":2022},"geometry":{"type":"Point","coordinates":[135.43380518454805,35.48491909604006]},"id":"bus-059"},{"type":"Feature","properties":{"id":"bus-060","name":"実業会館前","operator":"京都交通（株）","routes":["10東西循環線,11・12市内線（造船）,13市内線（合同庁舎線）,31・32高浜線,33市場循環線,41・42田井・野原線,45・46三浜線,47・48朝来循環線,51・52和田線,53長浜循環線,71・72常・溝尻線"],"source_year":2022},"geometry":{"type":"Point","coordinates":[135.39325653333321,35.47289910712944]},"id":"bus-060"},{"type":"Feature","properties":{"id":"bus-061","name":"室牛","operator":"京都交通（株）","routes":["41・42田井・野原線"],"source_year":2022},"geometry":{"type":"Point","coordinates":[135.4156699447822,35.525848525578894]},"id":"bus-061"},{"type":"Feature","properties":{"id":"bus-062","name":"小倉","operator":"京都交通（株）","routes":["31・32高浜線,47・48朝来循環線"],"source_year":2022},"geometry":{"type":"Point","coordinates":[135.42989678097203,35.48089097988417]},"id":"bus-062"},{"type":"Feature","properties":{"id":"bus-063","name":"小橋","operator":"京都交通（株）","routes":["45・46三浜線"],"source_year":2022},"geometry":{"type":"Point","coordinates":[135.40050063011915,35.559900255594364]},"id":"bus-063"},{"type":"Feature","properties":{"id":"bus-064","name":"小橋車庫","operator":"京都交通（株）","routes":["45・46三浜線"],"source_year":2022},"geometry":{"type":"Point","coordinates":[135.40243352714114,35.55879011240068]},"id":"bus-064"},{"type":"Feature","properties":{"id":"bus-065","name":"小津田","operator":"京都交通（株）","routes":["61・62大江線1"],"source_year":2022},"geometry":{"type":"Point","coordinates":[135.25808315904422,35.442254097461316]},"id":"bus-065"},{"type":"Feature","properties":{"id":"bus-066","name":"岡田由里","operator":"京都交通（株）","routes":["61・62大江線1"],"source_year":2022},"geometry":{"type":"Point","coordinates":[135.23137047542588,35.42956019554221]},"id":"bus-066"},{"type":"Feature","properties":{"id":"bus-067","name":"市場","operator":"京都交通（株）","routes":["11・12市内線（造船）,13市内線（合同庁舎線）,31・32高浜線,33市場循環線,45・46三浜線,47・48朝来循環線"],"source_year":2022},"geometry":{"type":"Point","coordinates":[135.40369444039172,35.47701177072913]},"id":"bus-067"},{"type":"Feature","properties":{"id":"bus-068","name":"市役所前","operator":"京都交通（株）","routes":["10東西循環線,11・12市内線（造船）,13市内線（合同庁舎線）,51・52和田線,53長浜循環線"],"source_year":2022},"geometry":{"type":"Point","coordinates":[135.38648041754976,35.47397462231475]},"id":"bus-068"},{"type":"Feature","properties":{"id":"bus-069","name":"常","operator":"京都交通（株）","routes":["71・72常・溝尻線"],"source_year":2022},"geometry":{"type":"Point","coordinates":[135.40761501759883,35.45002800073866]},"id":"bus-069"},{"type":"Feature","properties":{"id":"bus-070","name":"常口","operator":"京都交通（株）","routes":["71・72常・溝尻線"],"source_year":2022},"geometry":{"type":"Point","coordinates":[135.40324173286257,35.45090401290489]},"id":"bus-070"},{"type":"Feature","properties":{"id":"bus-071","name":"常団地前","operator":"京都交通（株）","routes":["71・72常・溝尻線"],"source_year":2022},"geometry":{"type":"Point","coordinates":[135.40130909098832,35.451459505743344]},"id":"bus-071"},{"type":"Feature","properties":{"id":"bus-072","name":"平","operator":"京都交通（株）","routes":["45・46三浜線"],"source_year":2022},"geometry":{"type":"Point","coordinates":[135.38918481301064,35.51669200389534]},"id":"bus-072"},{"type":"Feature","properties":{"id":"bus-073","name":"平口","operator":"京都交通（株）","routes":["41・42田井・野原線,45・46三浜線"],"source_year":2022},"geometry":{"type":"Point","coordinates":[135.40215899046052,35.51545903856758]},"id":"bus-073"},{"type":"Feature","properties":{"id":"bus-074","name":"平野屋","operator":"京都交通（株）","routes":["13市内線（合同庁舎線）,61・62大江線1,63・64大江線2（福井小学校口止）,66大江線3（加佐楽々）"],"source_year":2022},"geometry":{"type":"Point","coordinates":[135.3277124675377,35.450865518535764]},"id":"bus-074"},{"type":"Feature","properties":{"id":"bus-075","name":"広小路","operator":"京都交通（株）","routes":["10東西循環線,21・22市内線（造船）,13市内線（合同庁舎線）,15市内線（西高線）,51・52和田線,61・62大江線1,63・64大江線2（福井小学校口止）,66大江線3（加佐楽々）"],"source_year":2022},"geometry":{"type":"Point","coordinates":[135.32907652747525,35.45077247439641]},"id":"bus-075"},{"type":"Feature","properties":{"id":"bus-076","name":"庵の谷","operator":"京都交通（株）","routes":["31・32高浜線"],"source_year":2022},"geometry":{"type":"Point","coordinates":[135.44490074320507,35.482694965978354]},"id":"bus-076"},{"type":"Feature","properties":{"id":"bus-077","name":"引揚記念館前","operator":"京都交通（株）","routes":["41・42田井・野原線,45・46三浜線"],"source_year":2022},"geometry":{"type":"Point","coordinates":[135.39766272245882,35.50967623373804]},"id":"bus-077"},{"type":"Feature","properties":{"id":"bus-078","name":"志高","operator":"京都交通（株）","routes":["61・62大江線1"],"source_year":2022},"geometry":{"type":"Point","coordinates":[135.25103778580197,35.43069681740013]},"id":"bus-078"},{"type":"Feature","properties":{"id":"bus-079","name":"志高下境","operator":"京都交通（株）","routes":["61・62大江線1"],"source_year":2022},"geometry":{"type":"Point","coordinates":[135.25562980272164,35.43844912611554]},"id":"bus-079"},{"type":"Feature","properties":{"id":"bus-080","name":"教育隊前","operator":"京都交通（株）","routes":["41・42田井・野原線,45・46三浜線,47・48朝来循環線"],"source_year":2022},"geometry":{"type":"Point","coordinates":[135.40004691151123,35.4856035471753]},"id":"bus-080"},{"type":"Feature","properties":{"id":"bus-081","name":"新橋","operator":"京都交通（株）","routes":["13市内線（合同庁舎線）,61・62大江線1,63・64大江線2（福井小学校口止）,66大江線3（加佐楽々）"],"source_year":2022},"geometry":{"type":"Point","coordinates":[135.32399775791603,35.45110687968487]},"id":"bus-081"},{"type":"Feature","properties":{"id":"bus-082","name":"日赤病院前","operator":"京都交通（株）","routes":["10東西循環線,66大江線3（加佐楽々）"],"source_year":2022},"geometry":{"type":"Point","coordinates":[135.3381106417157,35.445107717914375]},"id":"bus-082"},{"type":"Feature","properties":{"id":"bus-083","name":"昭和台","operator":"京都交通（株）","routes":["10東西循環線"],"source_year":2022},"geometry":{"type":"Point","coordinates":[135.3545745627813,35.45068037738628]},"id":"bus-083"},{"type":"Feature","properties":{"id":"bus-084","name":"朝来中","operator":"京都交通（株）","routes":["47・48朝来循環線"],"source_year":2022},"geometry":{"type":"Point","coordinates":[135.431510115235,35.5001858459803]},"id":"bus-084"},{"type":"Feature","properties":{"id":"bus-085","name":"木下橋","operator":"京都交通（株）","routes":["71・72常・溝尻線"],"source_year":2022},"geometry":{"type":"Point","coordinates":[135.41286559703266,35.449255814900845]},"id":"bus-085"},{"type":"Feature","properties":{"id":"bus-086","name":"本町","operator":"京都交通（株）","routes":["10東西循環線,21・22市内線（造船）,15市内線（西高線）,51・52和田線,61・62大江線1,63・64大江線2（福井小学校口止）,66大江線3（加佐楽々）"],"source_year":2022},"geometry":{"type":"Point","coordinates":[135.32873633096375,35.448180293149875]},"id":"bus-086"},{"type":"Feature","properties":{"id":"bus-087","name":"本館前","operator":"京都交通（株）","routes":["11・12市内線（造船）,21・22市内線（造船）"],"source_year":2022},"geometry":{"type":"Point","coordinates":[135.3721743212792,35.48259279174823]},"id":"bus-087"},{"type":"Feature","properties":{"id":"bus-088","name":"東吉原","operator":"京都交通（株）","routes":["51・52和田線"],"source_year":2022},"geometry":{"type":"Point","coordinates":[135.3284064549365,35.45761498743891]},"id":"bus-088"},{"type":"Feature","properties":{"id":"bus-089","name":"東田辺","operator":"京都交通（株）","routes":["10東西循環線,66大江線3（加佐楽々）"],"source_year":2022},"geometry":{"type":"Point","coordinates":[135.33386097606152,35.44501461668386]},"id":"bus-089"},{"type":"Feature","properties":{"id":"bus-090","name":"東舞鶴駅前","operator":"京都交通（株）","routes":["10東西循環線,11・12市内線（造船）,13市内線（合同庁舎線）,31・32高浜線,33市場循環線,41・42田井・野原線,45・46三浜線,47・48朝来循環線,51・52和田線,53長浜循環線,71・72常・溝尻線"],"source_year":2022},"geometry":{"type":"Point","coordinates":[135.39432496715608,35.468744157710006]},"id":"bus-090"},{"type":"Feature","properties":{"id":"bus-091","name":"東門","operator":"京都交通（株）","routes":["10東西循環線,11・12市内線（造船）,13市内線（合同庁舎線）,51・52和田線,53長浜循環線"],"source_year":2022},"geometry":{"type":"Point","coordinates":[135.38849144996442,35.4731050641414]},"id":"bus-091"},{"type":"Feature","properties":{"id":"bus-092","name":"東高口","operator":"京都交通（株）","routes":["31・32高浜線,47・48朝来循環線"],"source_year":2022},"geometry":{"type":"Point","coordinates":[135.4146660171556,35.48028802484691]},"id":"bus-092"},{"type":"Feature","properties":{"id":"bus-093","name":"松尾寺口","operator":"京都交通（株）","routes":["31・32高浜線"],"source_year":2022},"geometry":{"type":"Point","coordinates":[135.46125749329283,35.485955862628174]},"id":"bus-093"},{"type":"Feature","properties":{"id":"bus-094","name":"松尾寺駅前","operator":"京都交通（株）","routes":["31・32高浜線"],"source_year":2022},"geometry":{"type":"Point","coordinates":[135.45113365961578,35.484733460243945]},"id":"bus-094"},{"type":"Feature","properties":{"id":"bus-095","name":"松島","operator":"京都交通（株）","routes":["11・12市内線（造船）,13市内線（合同庁舎線）,31・32高浜線,33市場循環線,41・42田井・野原線,45・46三浜線,47・48朝来循環線"],"source_year":2022},"geometry":{"type":"Point","coordinates":[135.4008307505842,35.47634599434542]},"id":"bus-095"},{"type":"Feature","properties":{"id":"bus-096","name":"板硝子工場前","operator":"京都交通（株）","routes":["41・42田井・野原線,45・46三浜線,47・48朝来循環線"],"source_year":2022},"geometry":{"type":"Point","coordinates":[135.40472626034165,35.49932173321358]},"id":"bus-096"},{"type":"Feature","properties":{"id":"bus-097","name":"栃尾","operator":"京都交通（株）","routes":["41・42田井・野原線"],"source_year":2022},"geometry":{"type":"Point","coordinates":[135.43638445279805,35.53164427267866]},"id":"bus-097"},{"type":"Feature","properties":{"id":"bus-098","name":"梅ヶ谷口","operator":"京都交通（株）","routes":["71・72常・溝尻線"],"source_year":2022},"geometry":{"type":"Point","coordinates":[135.4065133340243,35.46798539133468]},"id":"bus-098"},{"type":"Feature","properties":{"id":"bus-099","name":"森町","operator":"京都交通（株）","routes":["10東西循環線,71・72常・溝尻線"],"source_year":2022},"geometry":{"type":"Point","coordinates":[135.39262799055544,35.46547623017615]},"id":"bus-099"},{"type":"Feature","properties":{"id":"bus-100","name":"河辺中","operator":"京都交通（株）","routes":["41・42田井・野原線"],"source_year":2022},"geometry":{"type":"Point","coordinates":[135.40589833536856,35.52115412596148]},"id":"bus-100"},{"type":"Feature","properties":{"id":"bus-101","name":"河辺由里","operator":"京都交通（株）","routes":["41・42田井・野原線"],"source_year":2022},"geometry":{"type":"Point","coordinates":[135.41871466182303,35.52709789123251]},"id":"bus-101"},{"type":"Feature","properties":{"id":"bus-102","name":"浮島","operator":"京都交通（株）","routes":["11・12市内線（造船）,13市内線（合同庁舎線）,31・32高浜線,33市場循環線,41・42田井・野原線,45・46三浜線,47・48朝来循環線,71・72常・溝尻線"],"source_year":2022},"geometry":{"type":"Point","coordinates":[135.39913836607357,35.47595658153986]},"id":"bus-102"},{"type":"Feature","properties":{"id":"bus-103","name":"海上保安学校前","operator":"京都交通（株）","routes":["53長浜循環線"],"source_year":2022},"geometry":{"type":"Point","coordinates":[135.35474276897008,35.48735901789419]},"id":"bus-103"},{"type":"Feature","properties":{"id":"bus-104","name":"清道","operator":"京都交通（株）","routes":["10東西循環線"],"source_year":2022},"geometry":{"type":"Point","coordinates":[135.36020983768947,35.45418068734509]},"id":"bus-104"},{"type":"Feature","properties":{"id":"bus-105","name":"溝尻","operator":"京都交通（株）","routes":["71・72常・溝尻線"],"source_year":2022},"geometry":{"type":"Point","coordinates":[135.41181063796742,35.4648875589742]},"id":"bus-105"},{"type":"Feature","properties":{"id":"bus-106","name":"滝ケ浦","operator":"京都交通（株）","routes":["41・42田井・野原線,45・46三浜線,47・48朝来循環線"],"source_year":2022},"geometry":{"type":"Point","coordinates":[135.4047110421004,35.49629127617435]},"id":"bus-106"},{"type":"Feature","properties":{"id":"bus-107","name":"田中橋","operator":"京都交通（株）","routes":["31・32高浜線,47・48朝来循環線"],"source_year":2022},"geometry":{"type":"Point","coordinates":[135.42097822624456,35.481048751392365]},"id":"bus-107"},{"type":"Feature","properties":{"id":"bus-108","name":"田井","operator":"京都交通（株）","routes":["41・42田井・野原線"],"source_year":2022},"geometry":{"type":"Point","coordinates":[135.45385958639693,35.565344094139725]},"id":"bus-108"},{"type":"Feature","properties":{"id":"bus-109","name":"田園町口","operator":"京都交通（株）","routes":["31・32高浜線,47・48朝来循環線"],"source_year":2022},"geometry":{"type":"Point","coordinates":[135.43331420859843,35.48089847156127]},"id":"bus-109"},{"type":"Feature","properties":{"id":"bus-110","name":"由良川橋","operator":"京都交通（株）","routes":["61・62大江線1"],"source_year":2022},"geometry":{"type":"Point","coordinates":[135.2194842260722,35.42656060710105]},"id":"bus-110"},{"type":"Feature","properties":{"id":"bus-111","name":"白鳥団地前","operator":"京都交通（株）","routes":["10東西循環線"],"source_year":2022},"geometry":{"type":"Point","coordinates":[135.3829364033687,35.460134485617594]},"id":"bus-111"},{"type":"Feature","properties":{"id":"bus-112","name":"真倉","operator":"京都交通（株）","routes":["55・56真倉線"],"source_year":2022},"geometry":{"type":"Point","coordinates":[135.3191002249032,35.39337199282174]},"id":"bus-112"},{"type":"Feature","properties":{"id":"bus-113","name":"真倉駅前","operator":"京都交通（株）","routes":["55・56真倉線"],"source_year":2022},"geometry":{"type":"Point","coordinates":[135.32539578962746,35.40604497846595]},"id":"bus-113"},{"type":"Feature","properties":{"id":"bus-114","name":"矢の助","operator":"京都交通（株）","routes":["71・72常・溝尻線"],"source_year":2022},"geometry":{"type":"Point","coordinates":[135.40101334715777,35.47372499103949]},"id":"bus-114"},{"type":"Feature","properties":{"id":"bus-115","name":"福井小学校口","operator":"京都交通（株）","routes":["61・62大江線1,63・64大江線2（福井小学校口止）,66大江線3（加佐楽々）"],"source_year":2022},"geometry":{"type":"Point","coordinates":[135.30630572367838,35.44787542856853]},"id":"bus-115"},{"type":"Feature","properties":{"id":"bus-116","name":"福来東","operator":"京都交通（株）","routes":["10東西循環線"],"source_year":2022},"geometry":{"type":"Point","coordinates":[135.3508357421171,35.44794950805724]},"id":"bus-116"},{"type":"Feature","properties":{"id":"bus-117","name":"福来西","operator":"京都交通（株）","routes":["10東西循環線"],"source_year":2022},"geometry":{"type":"Point","coordinates":[135.34797237191262,35.44594108884541]},"id":"bus-117"},{"type":"Feature","properties":{"id":"bus-118","name":"税務署前","operator":"京都交通（株）","routes":["10東西循環線,21・22市内線（造船）,13市内線（合同庁舎線）,15市内線（西高線）"],"source_year":2022},"geometry":{"type":"Point","coordinates":[135.33675175495483,35.45073721895949]},"id":"bus-118"},{"type":"Feature","properties":{"id":"bus-119","name":"総合ハウス前","operator":"京都交通（株）","routes":["11・12市内線（造船）,21・22市内線（造船）"],"source_year":2022},"geometry":{"type":"Point","coordinates":[135.3758823243258,35.48352772402313]},"id":"bus-119"},{"type":"Feature","properties":{"id":"bus-120","name":"自衛隊桟橋前","operator":"京都交通（株）","routes":["10東西循環線,11・12市内線（造船）,13市内線（合同庁舎線）,51・52和田線,53長浜循環線"],"source_year":2022},"geometry":{"type":"Point","coordinates":[135.37561772765392,35.47664993211896]},"id":"bus-120"},{"type":"Feature","properties":{"id":"bus-121","name":"舞鶴医療センター前","operator":"京都交通（株）","routes":["10東西循環線,71・72常・溝尻線"],"source_year":2022},"geometry":{"type":"Point","coordinates":[135.40158266643073,35.46411361670758]},"id":"bus-121"},{"type":"Feature","properties":{"id":"bus-122","name":"舞鶴市リサイクルプラザ前","operator":"京都交通（株）","routes":["10東西循環線"],"source_year":2022},"geometry":{"type":"Point","coordinates":[135.37566246025438,35.45882336120187]},"id":"bus-122"},{"type":"Feature","properties":{"id":"bus-123","name":"舞鶴港とれとれセンター前","operator":"京都交通（株）","routes":["61・62大江線1,63・64大江線2（福井小学校口止）,66大江線3（加佐楽々）"],"source_year":2022},"geometry":{"type":"Point","coordinates":[135.31565734856943,35.44985670968928]},"id":"bus-123"},{"type":"Feature","properties":{"id":"bus-124","name":"舞鶴自然文化園","operator":"京都交通（株）","routes":["45・46三浜線"],"source_year":2022},"geometry":{"type":"Point","coordinates":[135.39728863290517,35.538113623213164]},"id":"bus-124"},{"type":"Feature","properties":{"id":"bus-125","name":"若浦中学校前","operator":"京都交通（株）","routes":["41・42田井・野原線,45・46三浜線"],"source_year":2022},"geometry":{"type":"Point","coordinates":[135.39838774181584,35.505443153671315]},"id":"bus-125"},{"type":"Feature","properties":{"id":"bus-126","name":"薬師口","operator":"京都交通（株）","routes":["61・62大江線1"],"source_year":2022},"geometry":{"type":"Point","coordinates":[135.24217577894586,35.426866809406526]},"id":"bus-126"},{"type":"Feature","properties":{"id":"bus-127","name":"藤の森","operator":"京都交通（株）","routes":["51・52和田線"],"source_year":2022},"geometry":{"type":"Point","coordinates":[135.3450893326828,35.47480533767439]},"id":"bus-127"},{"type":"Feature","properties":{"id":"bus-128","name":"藤津","operator":"京都交通（株）","routes":["61・62大江線1,66大江線3（加佐楽々）"],"source_year":2022},"geometry":{"type":"Point","coordinates":[135.26987337890918,35.45042336377947]},"id":"bus-128"},{"type":"Feature","properties":{"id":"bus-129","name":"行永","operator":"京都交通（株）","routes":["10東西循環線,71・72常・溝尻線"],"source_year":2022},"geometry":{"type":"Point","coordinates":[135.39743571178502,35.462022680574066]},"id":"bus-129"},{"type":"Feature","properties":{"id":"bus-130","name":"行永公会堂前","operator":"京都交通（株）","routes":["71・72常・溝尻線"],"source_year":2022},"geometry":{"type":"Point","coordinates":[135.3969002974931,35.45871807571641]},"id":"bus-130"},{"type":"Feature","properties":{"id":"bus-131","name":"行永郵便局前","operator":"京都交通（株）","routes":["10東西循環線,71・72常・溝尻線"],"source_year":2022},"geometry":{"type":"Point","coordinates":[135.39745757551705,35.46379160311425]},"id":"bus-131"},{"type":"Feature","properties":{"id":"bus-132","name":"西屋","operator":"京都交通（株）","routes":["41・42田井・野原線"],"source_year":2022},"geometry":{"type":"Point","coordinates":[135.41042902124258,35.52454913916512]},"id":"bus-132"},{"type":"Feature","properties":{"id":"bus-133","name":"西町","operator":"京都交通（株）","routes":["13市内線（合同庁舎線）,61・62大江線1,63・64大江線2（福井小学校口止）,66大江線3（加佐楽々）"],"source_year":2022},"geometry":{"type":"Point","coordinates":[135.32197569984527,35.45099494760997]},"id":"bus-133"},{"type":"Feature","properties":{"id":"bus-134","name":"西町三丁目","operator":"京都交通（株）","routes":["71・72常・溝尻線"],"source_year":2022},"geometry":{"type":"Point","coordinates":[135.4022969703355,35.47173474969203]},"id":"bus-134"},{"type":"Feature","properties":{"id":"bus-135","name":"西舞鶴駅前","operator":"京都交通（株）","routes":["10東西循環線,21・22市内線（造船）,51・52和田線,55・56真倉線,61・62大江線1,63・64大江線2（福井小学校口止）,66大江線3（加佐楽々）"],"source_year":2022},"geometry":{"type":"Point","coordinates":[135.32963388254475,35.44231075698355]},"id":"bus-135"},{"type":"Feature","properties":{"id":"bus-136","name":"西高前","operator":"京都交通（株）","routes":["15市内線（西高線）,55・56真倉線"],"source_year":2022},"geometry":{"type":"Point","coordinates":[135.32846434273563,35.438626489647135]},"id":"bus-136"},{"type":"Feature","properties":{"id":"bus-137","name":"赤野","operator":"京都交通（株）","routes":["45・46三浜線"],"source_year":2022},"geometry":{"type":"Point","coordinates":[135.38984222404426,35.52201510906364]},"id":"bus-137"},{"type":"Feature","properties":{"id":"bus-138","name":"造船所前","operator":"京都交通（株）","routes":["10東西循環線,13市内線（合同庁舎線）,51・52和田線,53長浜循環線"],"source_year":2022},"geometry":{"type":"Point","coordinates":[135.3699004877984,35.47671482147901]},"id":"bus-138"},{"type":"Feature","properties":{"id":"bus-139","name":"道芝口","operator":"京都交通（株）","routes":["10東西循環線,21・22市内線（造船）,13市内線（合同庁舎線）,15市内線（西高線）"],"source_year":2022},"geometry":{"type":"Point","coordinates":[135.36450524431712,35.467957080765295]},"id":"bus-139"},{"type":"Feature","properties":{"id":"bus-140","name":"野原","operator":"京都交通（株）","routes":["41・42田井・野原線"],"source_year":2022},"geometry":{"type":"Point","coordinates":[135.42821469309789,35.56815882008987]},"id":"bus-140"},{"type":"Feature","properties":{"id":"bus-141","name":"野原口","operator":"京都交通（株）","routes":["41・42田井・野原線"],"source_year":2022},"geometry":{"type":"Point","coordinates":[135.45114363344385,35.54746680775345]},"id":"bus-141"},{"type":"Feature","properties":{"id":"bus-142","name":"長浜","operator":"京都交通（株）","routes":["53長浜循環線"],"source_year":2022},"geometry":{"type":"Point","coordinates":[135.36212882901032,35.48284846279602]},"id":"bus-142"},{"type":"Feature","properties":{"id":"bus-143","name":"長浜口","operator":"京都交通（株）","routes":["51・52和田線,53長浜循環線"],"source_year":2022},"geometry":{"type":"Point","coordinates":[135.36014157489376,35.48064004710937]},"id":"bus-143"},{"type":"Feature","properties":{"id":"bus-144","name":"間口","operator":"京都交通（株）","routes":["61・62大江線1"],"source_year":2022},"geometry":{"type":"Point","coordinates":[135.25291341978468,35.433792343424464]},"id":"bus-144"},{"type":"Feature","properties":{"id":"bus-145","name":"雁又センター前","operator":"京都交通（株）","routes":["11・12市内線（造船）,21・22市内線（造船）"],"source_year":2022},"geometry":{"type":"Point","coordinates":[135.3758739519667,35.48746892237183]},"id":"bus-145"},{"type":"Feature","properties":{"id":"bus-146","name":"青葉中学校口","operator":"京都交通（株）","routes":["10東西循環線,71・72常・溝尻線"],"source_year":2022},"geometry":{"type":"Point","coordinates":[135.39979747634516,35.46384777179968]},"id":"bus-146"},{"type":"Feature","properties":{"id":"bus-147","name":"飛行場前","operator":"京都交通（株）","routes":["53長浜循環線"],"source_year":2022},"geometry":{"type":"Point","coordinates":[135.37289752965927,35.488483227050594]},"id":"bus-147"},{"type":"Feature","properties":{"id":"bus-148","name":"駅前通三条","operator":"京都交通（株）","routes":["10東西循環線,11・12市内線（造船）,13市内線（合同庁舎線）,31・32高浜線,33市場循環線,41・42田井・野原線,45・46三浜線,47・48朝来循環線,51・52和田線,53長浜循環線,71・72常・溝尻線"],"source_year":2022},"geometry":{"type":"Point","coordinates":[135.3928390230946,35.4740258863171]},"id":"bus-148"},{"type":"Feature","properties":{"id":"bus-149","name":"高倉神社前","operator":"京都交通（株）","routes":["53長浜循環線"],"source_year":2022},"geometry":{"type":"Point","coordinates":[135.36266340771297,35.486371437127104]},"id":"bus-149"},{"type":"Feature","properties":{"id":"bus-150","name":"鹿原","operator":"京都交通（株）","routes":["31・32高浜線"],"source_year":2022},"geometry":{"type":"Point","coordinates":[135.44037318507145,35.48120567228625]},"id":"bus-150"},{"type":"Feature","properties":{"id":"bus-151","name":"鹿原住宅前","operator":"京都交通（株）","routes":["31・32高浜線"],"source_year":2022},"geometry":{"type":"Point","coordinates":[135.43786234662332,35.480760716223266]},"id":"bus-151"}]}
