{"type":"FeatureCollection","features":[{"type":"Feature","properties":{"id":"medical-001","name":"あさぬま歯科医院","category_code":3,"category":"dental_clinic","address":"舞鶴市字浜1110","included_in_primary_distance":false,"source_year":2020},"geometry":{"type":"Point","coordinates":[135.3933166,35.46961669]},"id":"medical-001"},{"type":"Feature","properties":{"id":"medical-002","name":"あらが湾岸クリニック","category_code":2,"category":"clinic","address":"舞鶴市字浜２００１-４","included_in_primary_distance":true,"source_year":2020},"geometry":{"type":"Point","coordinates":[135.397293,35.477597]},"id":"medical-002"},{"type":"Feature","properties":{"id":"medical-003","name":"いいだクリニック","category_code":2,"category":"clinic","address":"舞鶴市字堀上小字堀上町１８５－３","included_in_primary_distance":true,"source_year":2020},"geometry":{"type":"Point","coordinates":[135.3243099,35.44776367]},"id":"medical-003"},{"type":"Feature","properties":{"id":"medical-004","name":"いとう歯科","category_code":3,"category":"dental_clinic","address":"舞鶴市溝尻町１２－６","included_in_primary_distance":false,"source_year":2020},"geometry":{"type":"Point","coordinates":[135.4066667,35.46701606]},"id":"medical-004"},{"type":"Feature","properties":{"id":"medical-005","name":"おかだ歯科医院","category_code":3,"category":"dental_clinic","address":"舞鶴市字倉谷１０５１ー１","included_in_primary_distance":false,"source_year":2020},"geometry":{"type":"Point","coordinates":[135.34409518107006,35.44499004546022]},"id":"medical-005"},{"type":"Feature","properties":{"id":"medical-006","name":"おぜき駅前歯科医院","category_code":3,"category":"dental_clinic","address":"舞鶴市南田辺南表町４０－１","included_in_primary_distance":false,"source_year":2020},"geometry":{"type":"Point","coordinates":[135.3298874,35.44325087]},"id":"medical-006"},{"type":"Feature","properties":{"id":"medical-007","name":"くまがい歯科クリニック","category_code":3,"category":"dental_clinic","address":"舞鶴市字大内小字大内野３６","included_in_primary_distance":false,"source_year":2020},"geometry":{"type":"Point","coordinates":[135.3342394,35.4452474]},"id":"medical-007"},{"type":"Feature","properties":{"id":"medical-008","name":"たかいデンタルクリニック","category_code":3,"category":"dental_clinic","address":"舞鶴市字京田８４７－１","included_in_primary_distance":false,"source_year":2020},"geometry":{"type":"Point","coordinates":[135.3316261,35.4178106]},"id":"medical-008"},{"type":"Feature","properties":{"id":"medical-009","name":"にしむら歯科ｸﾘﾆｯｸ","category_code":3,"category":"dental_clinic","address":"舞鶴市字引土小字湯ノ口86-9","included_in_primary_distance":false,"source_year":2020},"geometry":{"type":"Point","coordinates":[135.328706,35.437592]},"id":"medical-009"},{"type":"Feature","properties":{"id":"medical-010","name":"ふるもり歯科クリニック","category_code":3,"category":"dental_clinic","address":"舞鶴市字浜２００","included_in_primary_distance":false,"source_year":2020},"geometry":{"type":"Point","coordinates":[135.3937827,35.47504657]},"id":"medical-010"},{"type":"Feature","properties":{"id":"medical-011","name":"ほりさわ歯科医院","category_code":3,"category":"dental_clinic","address":"舞鶴市字浜１１５６","included_in_primary_distance":false,"source_year":2020},"geometry":{"type":"Point","coordinates":[135.3950043,35.47024414]},"id":"medical-011"},{"type":"Feature","properties":{"id":"medical-012","name":"まつえ歯科クリニック","category_code":3,"category":"dental_clinic","address":"舞鶴市字七日市小字西庄尺３３９ー１","included_in_primary_distance":false,"source_year":2020},"geometry":{"type":"Point","coordinates":[135.332155,35.42783312]},"id":"medical-012"},{"type":"Feature","properties":{"id":"medical-013","name":"むちキッズクリニック","category_code":2,"category":"clinic","address":"舞鶴市字浜４５１－２","included_in_primary_distance":true,"source_year":2020},"geometry":{"type":"Point","coordinates":[135.3968197,35.47458984]},"id":"medical-013"},{"type":"Feature","properties":{"id":"medical-014","name":"ジャパンマリンユナイテッド（株） 舞鶴診療所","category_code":2,"category":"clinic","address":"舞鶴市字余部下１１８０","included_in_primary_distance":true,"source_year":2020},"geometry":{"type":"Point","coordinates":[135.3758220630859,35.48252784309981]},"id":"medical-014"},{"type":"Feature","properties":{"id":"medical-015","name":"ライフ・ステージ舞夢診療所","category_code":2,"category":"clinic","address":"舞鶴市字桑飼上１０８８－１","included_in_primary_distance":true,"source_year":2020},"geometry":{"type":"Point","coordinates":[135.218924,35.4222532]},"id":"medical-015"},{"type":"Feature","properties":{"id":"medical-016","name":"中川歯科医院","category_code":3,"category":"dental_clinic","address":"舞鶴市朝日通八条東","included_in_primary_distance":false,"source_year":2020},"geometry":{"type":"Point","coordinates":[135.397144,35.472544]},"id":"medical-016"},{"type":"Feature","properties":{"id":"medical-017","name":"五条内藤歯科","category_code":3,"category":"dental_clinic","address":"舞鶴市字浜７７９","included_in_primary_distance":false,"source_year":2020},"geometry":{"type":"Point","coordinates":[135.394739,35.47227705]},"id":"medical-017"},{"type":"Feature","properties":{"id":"medical-018","name":"井上歯科医院","category_code":3,"category":"dental_clinic","address":"舞鶴市字浜７４４","included_in_primary_distance":false,"source_year":2020},"geometry":{"type":"Point","coordinates":[135.3931131,35.47183919]},"id":"medical-018"},{"type":"Feature","properties":{"id":"medical-019","name":"井上耳鼻いんこう科","category_code":2,"category":"clinic","address":"舞鶴市字伊佐津３１９","included_in_primary_distance":true,"source_year":2020},"geometry":{"type":"Point","coordinates":[135.3312489,35.43807726]},"id":"medical-019"},{"type":"Feature","properties":{"id":"medical-020","name":"京都府中丹東保健所","category_code":2,"category":"clinic","address":"舞鶴市字倉谷１３５０－２３","included_in_primary_distance":true,"source_year":2020},"geometry":{"type":"Point","coordinates":[135.3398057931267,35.44484944520594]},"id":"medical-020"},{"type":"Feature","properties":{"id":"medical-021","name":"京都府立舞鶴こども療育センター","category_code":1,"category":"hospital","address":"舞鶴市字行永小字永田2410番地37","included_in_primary_distance":true,"source_year":2020},"geometry":{"type":"Point","coordinates":[135.4026339823251,35.46212324767112]},"id":"medical-021"},{"type":"Feature","properties":{"id":"medical-022","name":"倉谷たかい歯科医院","category_code":3,"category":"dental_clinic","address":"舞鶴市大字倉谷小字馬場３２－１１","included_in_primary_distance":false,"source_year":2020},"geometry":{"type":"Point","coordinates":[135.3417643,35.44752496]},"id":"medical-022"},{"type":"Feature","properties":{"id":"medical-023","name":"公益社団法人京都保健会まいづる協立診療所","category_code":2,"category":"clinic","address":"舞鶴市字上安小字水力１９９ー３０","included_in_primary_distance":true,"source_year":2020},"geometry":{"type":"Point","coordinates":[135.342205,35.449712]},"id":"medical-023"},{"type":"Feature","properties":{"id":"medical-024","name":"内藤矯正歯科医院","category_code":3,"category":"dental_clinic","address":"舞鶴市字浜９２９","included_in_primary_distance":false,"source_year":2020},"geometry":{"type":"Point","coordinates":[135.3960992,35.47147027]},"id":"medical-024"},{"type":"Feature","properties":{"id":"medical-025","name":"冨川歯科医院","category_code":3,"category":"dental_clinic","address":"舞鶴市字余部下６８６－７","included_in_primary_distance":false,"source_year":2020},"geometry":{"type":"Point","coordinates":[135.3677135,35.4748195]},"id":"medical-025"},{"type":"Feature","properties":{"id":"medical-026","name":"医療法人　白修会　金下矯正歯科","category_code":3,"category":"dental_clinic","address":"舞鶴市字伊佐津猪馬場166ー5","included_in_primary_distance":false,"source_year":2020},"geometry":{"type":"Point","coordinates":[135.3320449599292,35.44143599428306]},"id":"medical-026"},{"type":"Feature","properties":{"id":"medical-027","name":"医療法人たなか内科クリニック","category_code":2,"category":"clinic","address":"舞鶴市竹屋８","included_in_primary_distance":true,"source_year":2020},"geometry":{"type":"Point","coordinates":[135.3267839,35.44906359]},"id":"medical-027"},{"type":"Feature","properties":{"id":"medical-028","name":"医療法人りんご会しかた小児科医院","category_code":2,"category":"clinic","address":"舞鶴市字引土３２４","included_in_primary_distance":true,"source_year":2020},"geometry":{"type":"Point","coordinates":[135.32722,35.44493734]},"id":"medical-028"},{"type":"Feature","properties":{"id":"medical-029","name":"医療法人一青会本河医院","category_code":2,"category":"clinic","address":"舞鶴市字浜７５８","included_in_primary_distance":true,"source_year":2020},"geometry":{"type":"Point","coordinates":[135.3939166,35.4718099]},"id":"medical-029"},{"type":"Feature","properties":{"id":"medical-030","name":"医療法人信天翁会 澤田医院","category_code":2,"category":"clinic","address":"舞鶴市字浜２６０","included_in_primary_distance":true,"source_year":2020},"geometry":{"type":"Point","coordinates":[135.3913239,35.47483998]},"id":"medical-030"},{"type":"Feature","properties":{"id":"medical-031","name":"医療法人医誠会　東舞鶴医誠会病院","category_code":1,"category":"hospital","address":"舞鶴市大字大波下小字前田765番16","included_in_primary_distance":true,"source_year":2020},"geometry":{"type":"Point","coordinates":[135.399475,35.502359]},"id":"medical-031"},{"type":"Feature","properties":{"id":"medical-032","name":"医療法人堀澤医院","category_code":2,"category":"clinic","address":"舞鶴市字浜１１４３","included_in_primary_distance":true,"source_year":2020},"geometry":{"type":"Point","coordinates":[135.3948221,35.47006944]},"id":"medical-032"},{"type":"Feature","properties":{"id":"medical-033","name":"医療法人岸本病院","category_code":1,"category":"hospital","address":"舞鶴市字浜１１３１","included_in_primary_distance":true,"source_year":2020},"geometry":{"type":"Point","coordinates":[135.39366353423583,35.47015810717254]},"id":"medical-033"},{"type":"Feature","properties":{"id":"medical-034","name":"医療法人弘愛会西村内科","category_code":2,"category":"clinic","address":"舞鶴市字浜７８２","included_in_primary_distance":true,"source_year":2020},"geometry":{"type":"Point","coordinates":[135.395111,35.47224359]},"id":"medical-034"},{"type":"Feature","properties":{"id":"medical-035","name":"医療法人正秋会石川眼科医院","category_code":2,"category":"clinic","address":"舞鶴市字浜９９８","included_in_primary_distance":true,"source_year":2020},"geometry":{"type":"Point","coordinates":[135.3934421,35.47086356]},"id":"medical-035"},{"type":"Feature","properties":{"id":"medical-036","name":"医療法人泰山会あいおい橋四方クリニック","category_code":2,"category":"clinic","address":"舞鶴市字下安久９７８-１５","included_in_primary_distance":true,"source_year":2020},"geometry":{"type":"Point","coordinates":[135.33070222157653,35.451258246703865]},"id":"medical-036"},{"type":"Feature","properties":{"id":"medical-037","name":"医療法人社団ながうちこころのクリニック","category_code":2,"category":"clinic","address":"舞鶴市倉谷１５３０","included_in_primary_distance":true,"source_year":2020},"geometry":{"type":"Point","coordinates":[135.3390663745989,35.446565587755444]},"id":"medical-037"},{"type":"Feature","properties":{"id":"medical-038","name":"医療法人社団外松医院","category_code":2,"category":"clinic","address":"舞鶴市字余部上４４０－１","included_in_primary_distance":true,"source_year":2020},"geometry":{"type":"Point","coordinates":[135.36500983294366,35.469789922591126]},"id":"medical-038"},{"type":"Feature","properties":{"id":"medical-039","name":"医療法人社団大橋医院","category_code":2,"category":"clinic","address":"舞鶴市字余部上１８６","included_in_primary_distance":true,"source_year":2020},"geometry":{"type":"Point","coordinates":[135.36748748722474,35.47404173690835]},"id":"medical-039"},{"type":"Feature","properties":{"id":"medical-040","name":"医療法人社団奥野整形外科医院","category_code":2,"category":"clinic","address":"舞鶴市字溝尻１０","included_in_primary_distance":true,"source_year":2020},"geometry":{"type":"Point","coordinates":[135.40209346006108,35.47619242422727]},"id":"medical-040"},{"type":"Feature","properties":{"id":"medical-041","name":"医療法人社団悠慈会指宿医院","category_code":2,"category":"clinic","address":"舞鶴市七条中町５－１","included_in_primary_distance":true,"source_year":2020},"geometry":{"type":"Point","coordinates":[135.39608413829671,35.461496048686946]},"id":"medical-041"},{"type":"Feature","properties":{"id":"medical-042","name":"医療法人社団晴友会小谷整形外科医院","category_code":2,"category":"clinic","address":"舞鶴市字伊佐津小字大長瀬５１－３","included_in_primary_distance":true,"source_year":2020},"geometry":{"type":"Point","coordinates":[135.33362716583397,35.440950398508676]},"id":"medical-042"},{"type":"Feature","properties":{"id":"medical-043","name":"医療法人社団青葉診療所","category_code":2,"category":"clinic","address":"舞鶴市行永東町２６－６","included_in_primary_distance":true,"source_year":2020},"geometry":{"type":"Point","coordinates":[135.39971279862752,35.46301399842741]},"id":"medical-043"},{"type":"Feature","properties":{"id":"medical-044","name":"医療法人社団鳥井医院","category_code":2,"category":"clinic","address":"舞鶴市字倉谷１６７５","included_in_primary_distance":true,"source_year":2020},"geometry":{"type":"Point","coordinates":[135.3377228606899,35.446929409703955]},"id":"medical-044"},{"type":"Feature","properties":{"id":"medical-045","name":"医療法人社団黒重会黒田神経内科医院","category_code":2,"category":"clinic","address":"舞鶴市字浜５３７","included_in_primary_distance":true,"source_year":2020},"geometry":{"type":"Point","coordinates":[135.39680606350927,35.474174575706755]},"id":"medical-045"},{"type":"Feature","properties":{"id":"medical-046","name":"医療法人秀仁会さくら眼科米田クリニック","category_code":2,"category":"clinic","address":"舞鶴市伊佐津小字溝黒１１２－１２","included_in_primary_distance":true,"source_year":2020},"geometry":{"type":"Point","coordinates":[135.33309877421348,35.44030271012332]},"id":"medical-046"},{"type":"Feature","properties":{"id":"medical-047","name":"医療法人緑会きしだ医院","category_code":2,"category":"clinic","address":"舞鶴市字南田辺４３ー１","included_in_primary_distance":true,"source_year":2020},"geometry":{"type":"Point","coordinates":[135.3297821865006,35.44308288215368]},"id":"medical-047"},{"type":"Feature","properties":{"id":"medical-048","name":"医療法人肥後内科医院","category_code":2,"category":"clinic","address":"舞鶴市字浜８１３","included_in_primary_distance":true,"source_year":2020},"geometry":{"type":"Point","coordinates":[135.3965228,35.47238627]},"id":"medical-048"},{"type":"Feature","properties":{"id":"medical-049","name":"医療法人舞鶴正峰会　舞鶴正峰会クリニック","category_code":2,"category":"clinic","address":"舞鶴市字引土１９-５","included_in_primary_distance":true,"source_year":2020},"geometry":{"type":"Point","coordinates":[135.32877285722944,35.44171554559191]},"id":"medical-049"},{"type":"Feature","properties":{"id":"medical-050","name":"医療法人荒木クリニック","category_code":2,"category":"clinic","address":"舞鶴市字京田小字大角１８－１","included_in_primary_distance":true,"source_year":2020},"geometry":{"type":"Point","coordinates":[135.327219,35.42665256]},"id":"medical-050"},{"type":"Feature","properties":{"id":"medical-051","name":"医療法人虹樹会 おおえ乳腺クリニック","category_code":2,"category":"clinic","address":"舞鶴市字倉谷向ノ丁１９０４－１０","included_in_primary_distance":true,"source_year":2020},"geometry":{"type":"Point","coordinates":[135.33347559361334,35.4433187019756]},"id":"medical-051"},{"type":"Feature","properties":{"id":"medical-052","name":"医療法人虹樹会　まさよクリニック","category_code":2,"category":"clinic","address":"舞鶴市字倉谷小字向ノ丁１９３０ー１","included_in_primary_distance":true,"source_year":2020},"geometry":{"type":"Point","coordinates":[135.33345571069077,35.44290580348318]},"id":"medical-052"},{"type":"Feature","properties":{"id":"medical-053","name":"医療法人豊永会　髙田内科医院","category_code":2,"category":"clinic","address":"舞鶴市倉梯町17-11","included_in_primary_distance":true,"source_year":2020},"geometry":{"type":"Point","coordinates":[135.3951426808344,35.46389596740832]},"id":"medical-053"},{"type":"Feature","properties":{"id":"medical-054","name":"医療法人順正会浮島岸本診療所","category_code":2,"category":"clinic","address":"舞鶴市字溝尻５７－３","included_in_primary_distance":true,"source_year":2020},"geometry":{"type":"Point","coordinates":[135.4009657,35.47717192]},"id":"medical-054"},{"type":"Feature","properties":{"id":"medical-055","name":"医療法人鶴洋会河﨑内科医院","category_code":2,"category":"clinic","address":"舞鶴市字引土２９５","included_in_primary_distance":true,"source_year":2020},"geometry":{"type":"Point","coordinates":[135.32824813604648,35.44359946772128]},"id":"medical-055"},{"type":"Feature","properties":{"id":"medical-056","name":"厚生労働省第二共済組合 舞鶴医療センター診療部","category_code":2,"category":"clinic","address":"舞鶴市字行永２４１０","included_in_primary_distance":true,"source_year":2020},"geometry":{"type":"Point","coordinates":[135.40241184294825,35.46328987016723]},"id":"medical-056"},{"type":"Feature","properties":{"id":"medical-057","name":"吉田歯科医院","category_code":3,"category":"dental_clinic","address":"舞鶴市字八反田南町３６","included_in_primary_distance":false,"source_year":2020},"geometry":{"type":"Point","coordinates":[135.3960362,35.45184136]},"id":"medical-057"},{"type":"Feature","properties":{"id":"medical-058","name":"吉田眼科医院","category_code":2,"category":"clinic","address":"舞鶴市字浜１１４７","included_in_primary_distance":true,"source_year":2020},"geometry":{"type":"Point","coordinates":[135.3943975,35.47056737]},"id":"medical-058"},{"type":"Feature","properties":{"id":"medical-059","name":"国土交通省共済組合海上保安学校診療所","category_code":2,"category":"clinic","address":"舞鶴市字長浜無番地","included_in_primary_distance":true,"source_year":2020},"geometry":{"type":"Point","coordinates":[135.35266733834482,35.48830859153335]},"id":"medical-059"},{"type":"Feature","properties":{"id":"medical-060","name":"国土交通省共済組合第八管区 海上保安本部支部診療所","category_code":2,"category":"clinic","address":"舞鶴市字下福井小字大野辺９０１","included_in_primary_distance":true,"source_year":2020},"geometry":{"type":"Point","coordinates":[135.31749660113545,35.45063633511104]},"id":"medical-060"},{"type":"Feature","properties":{"id":"medical-061","name":"国家公務員共済組合連合会 舞鶴共済病院","category_code":1,"category":"hospital","address":"舞鶴市字浜１０３５","included_in_primary_distance":true,"source_year":2020},"geometry":{"type":"Point","coordinates":[135.39129557802698,35.46961394249911]},"id":"medical-061"},{"type":"Feature","properties":{"id":"medical-062","name":"地域密着型特別養護老人ホームやすらぎの郷","category_code":2,"category":"clinic","address":"舞鶴市字安岡小字中山１０７６","included_in_primary_distance":true,"source_year":2020},"geometry":{"type":"Point","coordinates":[135.43884711797156,35.4898884171083]},"id":"medical-062"},{"type":"Feature","properties":{"id":"medical-063","name":"堀澤歯科クリニック","category_code":3,"category":"dental_clinic","address":"舞鶴市字浜1143-11","included_in_primary_distance":false,"source_year":2020},"geometry":{"type":"Point","coordinates":[135.39467519758065,35.469913431781634]},"id":"medical-063"},{"type":"Feature","properties":{"id":"medical-064","name":"大西医院","category_code":2,"category":"clinic","address":"舞鶴市字浜１８１","included_in_primary_distance":true,"source_year":2020},"geometry":{"type":"Point","coordinates":[135.3942144,35.47541992]},"id":"medical-064"},{"type":"Feature","properties":{"id":"medical-065","name":"小川歯科医院","category_code":3,"category":"dental_clinic","address":"舞鶴市字余部上２５０","included_in_primary_distance":false,"source_year":2020},"geometry":{"type":"Point","coordinates":[135.366262,35.471659]},"id":"medical-065"},{"type":"Feature","properties":{"id":"medical-066","name":"小瀬木歯科医院","category_code":3,"category":"dental_clinic","address":"舞鶴市字北田辺１５４","included_in_primary_distance":false,"source_year":2020},"geometry":{"type":"Point","coordinates":[135.3268263,35.4476964]},"id":"medical-066"},{"type":"Feature","properties":{"id":"medical-067","name":"山下歯科医院","category_code":3,"category":"dental_clinic","address":"舞鶴市倉谷１６２８","included_in_primary_distance":false,"source_year":2020},"geometry":{"type":"Point","coordinates":[135.3399308,35.4469361]},"id":"medical-067"},{"type":"Feature","properties":{"id":"medical-068","name":"山内歯科医院","category_code":3,"category":"dental_clinic","address":"舞鶴市字行永古川町２１０１","included_in_primary_distance":false,"source_year":2020},"geometry":{"type":"Point","coordinates":[135.3984922,35.46129263]},"id":"medical-068"},{"type":"Feature","properties":{"id":"medical-069","name":"川北歯科医院","category_code":3,"category":"dental_clinic","address":"舞鶴市南浜町２７－５ ショッピングセンターらぽーる３Ｆ","included_in_primary_distance":false,"source_year":2020},"geometry":{"type":"Point","coordinates":[135.39549639846535,35.4670333198267]},"id":"medical-069"},{"type":"Feature","properties":{"id":"medical-070","name":"市立舞鶴市民病院","category_code":1,"category":"hospital","address":"舞鶴市字倉谷１３５０－１１","included_in_primary_distance":true,"source_year":2020},"geometry":{"type":"Point","coordinates":[135.3387339400194,35.44441865132584]},"id":"medical-070"},{"type":"Feature","properties":{"id":"medical-071","name":"市立舞鶴市民病院加佐診療所","category_code":2,"category":"clinic","address":"舞鶴市字八田９６２","included_in_primary_distance":true,"source_year":2020},"geometry":{"type":"Point","coordinates":[135.2632021,35.45330322]},"id":"medical-071"},{"type":"Feature","properties":{"id":"medical-072","name":"徳田歯科医院","category_code":3,"category":"dental_clinic","address":"舞鶴市字引土小字古八丁２６０","included_in_primary_distance":false,"source_year":2020},"geometry":{"type":"Point","coordinates":[135.3281553,35.4428595]},"id":"medical-072"},{"type":"Feature","properties":{"id":"medical-073","name":"曽我内科医院","category_code":2,"category":"clinic","address":"舞鶴市矢之助町３２－１８","included_in_primary_distance":true,"source_year":2020},"geometry":{"type":"Point","coordinates":[135.4022548,35.4714464]},"id":"medical-073"},{"type":"Feature","properties":{"id":"medical-074","name":"杉立歯科医院","category_code":3,"category":"dental_clinic","address":"舞鶴市字浜１７１","included_in_primary_distance":false,"source_year":2020},"geometry":{"type":"Point","coordinates":[135.394667784898,35.475573771937434]},"id":"medical-074"},{"type":"Feature","properties":{"id":"medical-075","name":"松代歯科医院","category_code":3,"category":"dental_clinic","address":"舞鶴市字倉梯町１３－６","included_in_primary_distance":false,"source_year":2020},"geometry":{"type":"Point","coordinates":[135.3972607,35.46397904]},"id":"medical-075"},{"type":"Feature","properties":{"id":"medical-076","name":"松田歯科医院","category_code":3,"category":"dental_clinic","address":"舞鶴市字浜９８１－２","included_in_primary_distance":false,"source_year":2020},"geometry":{"type":"Point","coordinates":[135.3941239,35.47122053]},"id":"medical-076"},{"type":"Feature","properties":{"id":"medical-077","name":"森歯科医院","category_code":3,"category":"dental_clinic","address":"舞鶴市田中町１９－３","included_in_primary_distance":false,"source_year":2020},"geometry":{"type":"Point","coordinates":[135.41819,35.48090435]},"id":"medical-077"},{"type":"Feature","properties":{"id":"medical-078","name":"海上自衛隊舞鶴衛生隊第一医務室","category_code":2,"category":"clinic","address":"舞鶴市字余部下１１９０","included_in_primary_distance":true,"source_year":2020},"geometry":{"type":"Point","coordinates":[135.3714736,35.4747856]},"id":"medical-078"},{"type":"Feature","properties":{"id":"medical-079","name":"海上自衛隊舞鶴衛生隊第二医務室","category_code":2,"category":"clinic","address":"舞鶴市字泉源寺知中１７５－２","included_in_primary_distance":true,"source_year":2020},"geometry":{"type":"Point","coordinates":[135.398688,35.485327]},"id":"medical-079"},{"type":"Feature","properties":{"id":"medical-080","name":"海上自衛隊補給艦「ましゅう」医務室","category_code":2,"category":"clinic","address":"舞鶴市字余部下１１９０","included_in_primary_distance":true,"source_year":2020},"geometry":{"type":"Point","coordinates":[135.36904284010873,35.47543967061685]},"id":"medical-080"},{"type":"Feature","properties":{"id":"medical-081","name":"海上自衛隊護衛艦「ひゅうが」医務室","category_code":2,"category":"clinic","address":"舞鶴市字余部下１１９０","included_in_primary_distance":true,"source_year":2020},"geometry":{"type":"Point","coordinates":[135.36904284010873,35.47543967061685]},"id":"medical-081"},{"type":"Feature","properties":{"id":"medical-082","name":"渡辺医院","category_code":2,"category":"clinic","address":"舞鶴市森町２２－１","included_in_primary_distance":true,"source_year":2020},"geometry":{"type":"Point","coordinates":[135.3942051,35.4658482]},"id":"medical-082"},{"type":"Feature","properties":{"id":"medical-083","name":"片山産婦人科","category_code":2,"category":"clinic","address":"舞鶴市倉谷向ノ丁４００－１","included_in_primary_distance":true,"source_year":2020},"geometry":{"type":"Point","coordinates":[135.3330041,35.44312158]},"id":"medical-083"},{"type":"Feature","properties":{"id":"medical-084","name":"特別養護老人ホームやすらぎ苑","category_code":2,"category":"clinic","address":"舞鶴市北浜町３－１０","included_in_primary_distance":true,"source_year":2020},"geometry":{"type":"Point","coordinates":[135.39770869537955,35.46946304550795]},"id":"medical-084"},{"type":"Feature","properties":{"id":"medical-085","name":"特別養護老人ホームグリーンプラザ博愛苑医務室","category_code":2,"category":"clinic","address":"舞鶴市字市場３９０","included_in_primary_distance":true,"source_year":2020},"geometry":{"type":"Point","coordinates":[135.416739,35.4752888]},"id":"medical-085"},{"type":"Feature","properties":{"id":"medical-086","name":"特別養護老人ホーム安寿苑","category_code":2,"category":"clinic","address":"舞鶴市字上安小字吉口４８１","included_in_primary_distance":true,"source_year":2020},"geometry":{"type":"Point","coordinates":[135.344727,35.455611]},"id":"medical-086"},{"type":"Feature","properties":{"id":"medical-087","name":"特別養護老人ホーム真愛の家寿荘医務室","category_code":2,"category":"clinic","address":"舞鶴市字上安１６９７ー３６","included_in_primary_distance":true,"source_year":2020},"geometry":{"type":"Point","coordinates":[135.3566221517037,35.45173337146017]},"id":"medical-087"},{"type":"Feature","properties":{"id":"medical-088","name":"特別養護老人ﾎｰﾑｸﾞﾚｲｽｳﾞｨﾙまいづる診療所","category_code":2,"category":"clinic","address":"舞鶴市字布敷小字中島５２ー１","included_in_primary_distance":true,"source_year":2020},"geometry":{"type":"Point","coordinates":[135.343479,35.412067]},"id":"medical-088"},{"type":"Feature","properties":{"id":"medical-089","name":"独立行政法人国立病院機構 舞鶴医療センター","category_code":1,"category":"hospital","address":"舞鶴市字行永２４１０","included_in_primary_distance":true,"source_year":2020},"geometry":{"type":"Point","coordinates":[135.40241184294825,35.46328987016723]},"id":"medical-089"},{"type":"Feature","properties":{"id":"medical-090","name":"畑歯科医院","category_code":3,"category":"dental_clinic","address":"舞鶴市森町２３－６","included_in_primary_distance":false,"source_year":2020},"geometry":{"type":"Point","coordinates":[135.3935273,35.4669176]},"id":"medical-090"},{"type":"Feature","properties":{"id":"medical-091","name":"白鳥産婦人科","category_code":2,"category":"clinic","address":"舞鶴市字上安中ノ脇１７００","included_in_primary_distance":true,"source_year":2020},"geometry":{"type":"Point","coordinates":[135.3555783,35.45191949]},"id":"medical-091"},{"type":"Feature","properties":{"id":"medical-092","name":"竹屋町森歯科クリニック","category_code":3,"category":"dental_clinic","address":"舞鶴市竹屋２０","included_in_primary_distance":false,"source_year":2020},"geometry":{"type":"Point","coordinates":[135.3268014,35.44947652]},"id":"medical-092"},{"type":"Feature","properties":{"id":"medical-093","name":"自衛隊舞鶴病院","category_code":1,"category":"hospital","address":"舞鶴市大字泉源寺小字知中１５３７番１","included_in_primary_distance":true,"source_year":2020},"geometry":{"type":"Point","coordinates":[135.4018762516933,35.48497003945108]},"id":"medical-093"},{"type":"Feature","properties":{"id":"medical-094","name":"舞鶴市休日急病診療所","category_code":2,"category":"clinic","address":"舞鶴市字行永２２６０-２","included_in_primary_distance":true,"source_year":2020},"geometry":{"type":"Point","coordinates":[135.40167988921147,35.464025854201395]},"id":"medical-094"},{"type":"Feature","properties":{"id":"medical-095","name":"舞鶴赤十字病院","category_code":1,"category":"hospital","address":"舞鶴市字倉谷４２７","included_in_primary_distance":true,"source_year":2020},"geometry":{"type":"Point","coordinates":[135.33716266549706,35.44478163636098]},"id":"medical-095"},{"type":"Feature","properties":{"id":"medical-096","name":"藤井内科医院","category_code":2,"category":"clinic","address":"舞鶴市字引土６７－１","included_in_primary_distance":true,"source_year":2020},"geometry":{"type":"Point","coordinates":[135.3287191,35.43934165]},"id":"medical-096"},{"type":"Feature","properties":{"id":"medical-097","name":"衣川歯科医院","category_code":3,"category":"dental_clinic","address":"舞鶴市北吸７３４","included_in_primary_distance":false,"source_year":2020},"geometry":{"type":"Point","coordinates":[135.3881892,35.47275021]},"id":"medical-097"},{"type":"Feature","properties":{"id":"medical-098","name":"西川医院","category_code":2,"category":"clinic","address":"舞鶴市字市場８","included_in_primary_distance":true,"source_year":2020},"geometry":{"type":"Point","coordinates":[135.4024631,35.47733615]},"id":"medical-098"},{"type":"Feature","properties":{"id":"medical-099","name":"西村医院","category_code":2,"category":"clinic","address":"舞鶴市余部下８３０","included_in_primary_distance":true,"source_year":2020},"geometry":{"type":"Point","coordinates":[135.3645335,35.47777962]},"id":"medical-099"},{"type":"Feature","properties":{"id":"medical-100","name":"西村医院","category_code":2,"category":"clinic","address":"舞鶴市字浜７７１","included_in_primary_distance":true,"source_year":2020},"geometry":{"type":"Point","coordinates":[135.3945238,35.47195339]},"id":"medical-100"},{"type":"Feature","properties":{"id":"medical-101","name":"隅山医院","category_code":2,"category":"clinic","address":"舞鶴市字松陰５－４","included_in_primary_distance":true,"source_year":2020},"geometry":{"type":"Point","coordinates":[135.3246179,35.45227253]},"id":"medical-101"},{"type":"Feature","properties":{"id":"medical-102","name":"養護老人ホーム安岡園","category_code":2,"category":"clinic","address":"舞鶴市字安岡１０７６-１","included_in_primary_distance":true,"source_year":2020},"geometry":{"type":"Point","coordinates":[135.43861963966452,35.49097061990118]},"id":"medical-102"},{"type":"Feature","properties":{"id":"medical-103","name":"馬場歯科医院","category_code":3,"category":"dental_clinic","address":"舞鶴市字伊佐津小字長瀬６６－８","included_in_primary_distance":false,"source_year":2020},"geometry":{"type":"Point","coordinates":[135.3336319,35.4390408]},"id":"medical-103"},{"type":"Feature","properties":{"id":"medical-104","name":"髙田歯科医院","category_code":3,"category":"dental_clinic","address":"舞鶴市丸山口町２３-３","included_in_primary_distance":false,"source_year":2020},"geometry":{"type":"Point","coordinates":[135.3917416654534,35.460026117348626]},"id":"medical-104"},{"type":"Feature","properties":{"id":"medical-105","name":"鹿野医院","category_code":2,"category":"clinic","address":"舞鶴市丸山口６２","included_in_primary_distance":true,"source_year":2020},"geometry":{"type":"Point","coordinates":[135.3921694,35.46041175]},"id":"medical-105"}]}
