{"type":"FeatureCollection","features":[],"metadata":{"status":"verified_empty_for_top10","scope":"CITY GAP Top 10 500 m meshes","records":0,"source_distribution_unique_buildings":44640,"attributes":[],"inspection_method":"Full official LOD1/LOD2 3D Tiles batch metadata inspection: _x/_y representative-point inclusion and _xmin/_xmax/_ymin/_ymax building bounding-box intersection for every Top 10 mesh","geometry_relation":"representative point-in-mesh and building bounding-box intersection; not an exact footprint intersection","reason":"The official PLATEAU package was inspected and contained zero building records in the Top 10 mesh scope. The empty layer is intentional.","per_mesh":[{"rank":1,"mesh_code":"533512753","records":0},{"rank":2,"mesh_code":"533522274","records":0},{"rank":3,"mesh_code":"533512132","records":0},{"rank":4,"mesh_code":"533502982","records":0},{"rank":5,"mesh_code":"533512144","records":0},{"rank":6,"mesh_code":"533512134","records":0},{"rank":7,"mesh_code":"533513551","records":0},{"rank":8,"mesh_code":"533522094","records":0},{"rank":9,"mesh_code":"533512931","records":0},{"rank":10,"mesh_code":"533502943","records":0}]}}
