{"type":"FeatureCollection","features":[{"type":"Feature","id":"tran_165dd703-6ac0-48da-ac24-f2be5db51c9e-0","properties":{"road_id":"tran_165dd703-6ac0-48da-ac24-f2be5db51c9e-0","road_name":"京月西通線","road_class":"1040","road_function":"4","source":"Project PLATEAU 舞鶴市2025 道路LOD1"},"geometry":{"type":"Polygon","coordinates":[[[135.3983580417229,35.449000135756684],[135.39829339532514,35.44901279358691],[135.39827611603633,35.449010723503626],[135.39825564878552,35.448978171440004],[135.39826450319848,35.448957754016156],[135.39832511011937,35.448940208561716],[135.39834766132125,35.44894437720772],[135.3983647071437,35.44897781359556],[135.3983580417229,35.449000135756684]]]}},{"type":"Feature","id":"tran_8a097d31-1dd3-4bfb-8562-140d658a5426-0","properties":{"road_id":"tran_8a097d31-1dd3-4bfb-8562-140d658a5426-0","road_name":"椿１号線","road_class":"1040","road_function":"4","source":"Project PLATEAU 舞鶴市2025 道路LOD1"},"geometry":{"type":"Polygon","coordinates":[[[135.39811126328263,35.44724027367579],[135.3980485743685,35.44725056681286],[135.39804788566605,35.447248269028485],[135.39802096763017,35.44719450207834],[135.3980815760959,35.447175388428406],[135.39808179760274,35.44717641701273],[135.39810869084252,35.447233518970776],[135.39811126328263,35.44724027367579]]]}},{"type":"Feature","id":"tran_7da756f5-7264-4b51-b608-0a22b01a775e-0","properties":{"road_id":"tran_7da756f5-7264-4b51-b608-0a22b01a775e-0","road_name":"京月中央通線","road_class":"1040","road_function":"4","source":"Project PLATEAU 舞鶴市2025 道路LOD1"},"geometry":{"type":"Polygon","coordinates":[[[135.39898081235083,35.4473042061713],[135.39882538694314,35.44736301422262],[135.39872494906265,35.447400443092086],[135.39869704073104,35.44735029640593],[135.39885852584482,35.44729133841551],[135.39895340690003,35.44725555222],[135.39898081235083,35.4473042061713]]]}},{"type":"Feature","id":"tran_e3c1e409-73fd-4e92-9d67-f3b436ce9376-0","properties":{"road_id":"tran_e3c1e409-73fd-4e92-9d67-f3b436ce9376-0","road_name":"京月西通線","road_class":"1040","road_function":"4","source":"Project PLATEAU 舞鶴市2025 道路LOD1"},"geometry":{"type":"Polygon","coordinates":[[[135.3985128459748,35.449277092195516],[135.39845343131688,35.4492970774365],[135.3984275975393,35.44928991786529],[135.39841099425342,35.449256213275746],[135.39841764021486,35.44923650685001],[135.398484167439,35.44922277575622],[135.39850045003809,35.44922556105476],[135.3985211565292,35.44925559127715],[135.3985128459748,35.449277092195516]]]}},{"type":"Feature","id":"tran_d46685f3-c55d-4618-a157-89274f696ebd-0","properties":{"road_id":"tran_d46685f3-c55d-4618-a157-89274f696ebd-0","road_name":"青山通線","road_class":"1040","road_function":"4","source":"Project PLATEAU 舞鶴市2025 道路LOD1"},"geometry":{"type":"Polygon","coordinates":[[[135.39762795372494,35.44886245746439],[135.39775565793872,35.448813788550005],[135.39787706582953,35.448767431710834],[135.39809435134336,35.448685947895015],[135.39812054984634,35.4487328606653],[135.39796931493336,35.44879060680764],[135.39787662404535,35.44882674098364],[135.39757837070303,35.44893801696771],[135.39762795372494,35.44886245746439]]]}},{"type":"Feature","id":"tran_67f5837d-9199-4196-8cfd-6aceadf7c78e-0","properties":{"road_id":"tran_67f5837d-9199-4196-8cfd-6aceadf7c78e-0","road_name":"京月山手通線","road_class":"1040","road_function":"4","source":"Project PLATEAU 舞鶴市2025 道路LOD1"},"geometry":{"type":"Polygon","coordinates":[[[135.39937718516342,35.44821459364024],[135.39939017652094,35.448278933862355],[135.3993942188149,35.44829807659802],[135.39931978649383,35.44830860085209],[135.39930300486915,35.448298871574124],[135.39927629101712,35.4482502244674],[135.39928422084196,35.44824730871824],[135.3993019031628,35.448224771803524],[135.39937718516342,35.44821459364024]]]}},{"type":"Feature","id":"tran_40c8fd8e-a610-4f37-8c08-b40523984305-0","properties":{"road_id":"tran_40c8fd8e-a610-4f37-8c08-b40523984305-0","road_name":"京月山手通線","road_class":"1040","road_function":"4","source":"Project PLATEAU 舞鶴市2025 道路LOD1"},"geometry":{"type":"Polygon","coordinates":[[[135.3993942188149,35.44829807659802],[135.39944295711362,35.44852888156443],[135.39944518121618,35.44853949208622],[135.39936987713386,35.44855006122914],[135.39931978649383,35.44830860085209],[135.3993942188149,35.44829807659802]]]}},{"type":"Feature","id":"tran_f7c9a29c-03cd-460e-b45d-a18e6454447b-0","properties":{"road_id":"tran_f7c9a29c-03cd-460e-b45d-a18e6454447b-0","road_name":"椿川通線","road_class":"1040","road_function":"4","source":"Project PLATEAU 舞鶴市2025 道路LOD1"},"geometry":{"type":"Polygon","coordinates":[[[135.39756721768242,35.44895643981171],[135.39751226736684,35.44896878505172],[135.3975039232721,35.448965047709635],[135.39749742423646,35.44896501527493],[135.39747544005888,35.44891433756722],[135.39748282034478,35.44889959160235],[135.39760291473553,35.44885214771864],[135.39762795372494,35.44886245746439],[135.39757837070303,35.44893801696771],[135.39756721768242,35.44895643981171]]]}},{"type":"Feature","id":"tran_84114aab-0d70-44ca-a5c0-e535cdc6cc97-0","properties":{"road_id":"tran_84114aab-0d70-44ca-a5c0-e535cdc6cc97-0","road_name":"椿川通線","road_class":"1040","road_function":"4","source":"Project PLATEAU 舞鶴市2025 道路LOD1"},"geometry":{"type":"Polygon","coordinates":[[[135.39779034654728,35.4495285373017],[135.39778037836268,35.44953222968315],[135.39777242178306,35.44955039807224],[135.39771522141564,35.44956231900687],[135.39770343584212,35.4495244544388],[135.39769548189264,35.44950408907661],[135.39775349202046,35.44948891897381],[135.39777282067706,35.449496857489784],[135.39779034654728,35.4495285373017]]]}},{"type":"Feature","id":"tran_5967b2b9-9084-4bf0-963a-b6f8e8479bb6-0","properties":{"road_id":"tran_5967b2b9-9084-4bf0-963a-b6f8e8479bb6-0","road_name":"京月通線","road_class":"1040","road_function":"4","source":"Project PLATEAU 舞鶴市2025 道路LOD1"},"geometry":{"type":"Polygon","coordinates":[[[135.39833482900124,35.44969014240712],[135.3981871503658,35.449745102304654],[135.39815704800384,35.44969142302151],[135.39830449938685,35.44963605805864],[135.39833482900124,35.44969014240712]]]}},{"type":"Feature","id":"tran_529ef3be-1947-4c37-bfbd-e2ef9b562d51-0","properties":{"road_id":"tran_529ef3be-1947-4c37-bfbd-e2ef9b562d51-0","road_name":"山手１号通線","road_class":"1040","road_function":"4","source":"Project PLATEAU 舞鶴市2025 道路LOD1"},"geometry":{"type":"Polygon","coordinates":[[[135.3985841438865,35.44715642238329],[135.39866377906955,35.447290368546675],[135.3986835833528,35.44732605012828],[135.39864379605396,35.44734083701624],[135.39861685479138,35.447290134809606],[135.39856958945845,35.4471876816741],[135.3985580683824,35.447166803059574],[135.3985841438865,35.44715642238329]]]}},{"type":"Feature","id":"tran_b8a1ea1e-9445-4ee0-ade7-22032fbe7624-0","properties":{"road_id":"tran_b8a1ea1e-9445-4ee0-ade7-22032fbe7624-0","road_name":"京月中央通線","road_class":"1040","road_function":"4","source":"Project PLATEAU 舞鶴市2025 道路LOD1"},"geometry":{"type":"Polygon","coordinates":[[[135.39886566484677,35.448479226240494],[135.39880065496644,35.448496389487566],[135.39878108736823,35.44849097383851],[135.39875898296881,35.448441557705095],[135.39876458645975,35.448428695730044],[135.3988241469914,35.44840366327011],[135.3988465771936,35.44840927344467],[135.39887320258225,35.44845808110078],[135.39886566484677,35.448479226240494]]]}},{"type":"Feature","id":"tran_a74083d3-464d-4003-8d80-a1940d5c5b8a-0","properties":{"road_id":"tran_a74083d3-464d-4003-8d80-a1940d5c5b8a-0","road_name":"京月中央通線","road_class":"1040","road_function":"4","source":"Project PLATEAU 舞鶴市2025 道路LOD1"},"geometry":{"type":"Polygon","coordinates":[[[135.3990191770892,35.448752120268985],[135.39895677382867,35.44877425422094],[135.39893555788043,35.448768289556185],[135.39891497825877,35.448736007459665],[135.39892492528702,35.44871676813441],[135.39898657956385,35.44869165498037],[135.39901316885224,35.448700892292145],[135.39902602507874,35.44873484766527],[135.3990191770892,35.448752120268985]]]}},{"type":"Feature","id":"tran_2f50ef1f-56fb-432a-87cc-a9fc756e6c3d-0","properties":{"road_id":"tran_2f50ef1f-56fb-432a-87cc-a9fc756e6c3d-0","road_name":"京月通線","road_class":"1040","road_function":"4","source":"Project PLATEAU 舞鶴市2025 道路LOD1"},"geometry":{"type":"Polygon","coordinates":[[[135.39746656265316,35.449794951400776],[135.39757645969098,35.44978567469833],[135.3975883402298,35.44978789731913],[135.3975654955811,35.44984738988638],[135.39756134564442,35.44984779518995],[135.39746674452334,35.449859221418585],[135.39746656265316,35.449794951400776]]]}},{"type":"Feature","id":"tran_ae03a5f2-7ca0-4f6b-97b0-6a2af5c4980c-0","properties":{"road_id":"tran_ae03a5f2-7ca0-4f6b-97b0-6a2af5c4980c-0","road_name":"椿川通線","road_class":"1040","road_function":"4","source":"Project PLATEAU 舞鶴市2025 道路LOD1"},"geometry":{"type":"Polygon","coordinates":[[[135.39764356386843,35.44919199345976],[135.39766609159557,35.449199316981485],[135.39768543413638,35.44923319413121],[135.39767583615952,35.449236863430045],[135.39766690701077,35.44925250306825],[135.39760752058868,35.44926672754123],[135.3975868371719,35.44920464843906],[135.39764356386843,35.44919199345976]]]}},{"type":"Feature","id":"tran_7fd1a0c5-3477-449c-af74-aa71357a4f20-0","properties":{"road_id":"tran_7fd1a0c5-3477-449c-af74-aa71357a4f20-0","road_name":"京月中央通線","road_class":"1040","road_function":"4","source":"Project PLATEAU 舞鶴市2025 道路LOD1"},"geometry":{"type":"Polygon","coordinates":[[[135.39813016764433,35.44750043851509],[135.3982299944808,35.44751157165548],[135.3982609147574,35.44751605244977],[135.39836254486067,35.44753665996965],[135.39835413526342,35.447556538788845],[135.39829075682323,35.44757659434669],[135.3982579840787,35.447569400155416],[135.39813512689386,35.447529577248034],[135.3981322425254,35.44751263024934],[135.39813016764433,35.44750043851509]]]}},{"type":"Feature","id":"tran_53c9b087-9fc8-440b-a3ea-afb2e75e099c-0","properties":{"road_id":"tran_53c9b087-9fc8-440b-a3ea-afb2e75e099c-0","road_name":"椿川通線","road_class":"1040","road_function":"4","source":"Project PLATEAU 舞鶴市2025 道路LOD1"},"geometry":{"type":"Polygon","coordinates":[[[135.39803777185364,35.44842894984335],[135.39797879807702,35.44844911733233],[135.39795330983898,35.44843997632461],[135.39786671824132,35.44839690870879],[135.39787517638894,35.448370540159516],[135.3980080969491,35.448375529708585],[135.3980247104822,35.448378227483374],[135.39804706753998,35.44840844449489],[135.39803777185364,35.44842894984335]]]}},{"type":"Feature","id":"tran_e94294e1-fd81-4adc-96b7-17ce30d469aa-0","properties":{"road_id":"tran_e94294e1-fd81-4adc-96b7-17ce30d469aa-0","road_name":"東椿線","road_class":"1040","road_function":"4","source":"Project PLATEAU 舞鶴市2025 道路LOD1"},"geometry":{"type":"Polygon","coordinates":[[[135.39752659689947,35.44681556125447],[135.3975210803665,35.44683448095295],[135.39751053781936,35.44685527750291],[135.39749730238836,35.44687542963945],[135.3974805856072,35.44689682634672],[135.39746354324376,35.44691032524596],[135.39743387847645,35.446967984261185],[135.39742041562621,35.446963814837616],[135.39741397027404,35.4469669465477],[135.39739000485574,35.44695105273117],[135.39739354958112,35.446947473739165],[135.3974163866006,35.44691173942824],[135.39738814518444,35.446867114844565],[135.39739596925435,35.44685192039902],[135.3974134556735,35.44682613777321],[135.39743104752864,35.446800986644355],[135.39743160331716,35.44679886874978],[135.39752659689947,35.44681556125447]]]}},{"type":"Feature","id":"tran_269bfde5-df55-41d5-9353-bd7f422382a5-0","properties":{"road_id":"tran_269bfde5-df55-41d5-9353-bd7f422382a5-0","road_name":"東椿線","road_class":"1040","road_function":"4","source":"Project PLATEAU 舞鶴市2025 道路LOD1"},"geometry":{"type":"Polygon","coordinates":[[[135.39715525851278,35.4476970341167],[135.39717819604098,35.447605026558925],[135.39719584618118,35.44752777539667],[135.3972045786007,35.4474794143355],[135.39722035477516,35.44740233408925],[135.3972392641272,35.44730688111864],[135.39728884533127,35.44708239399541],[135.39727767538454,35.4470615972367],[135.39729496615666,35.447011980889265],[135.39732273010486,35.447009685737285],[135.39734267180495,35.44699884330688],[135.39736797427267,35.44701338323725],[135.39736663310896,35.44701473724958],[135.39734882170598,35.44703549209204],[135.397312888799,35.44728363225788],[135.39728517122276,35.44741104062597],[135.39726963758804,35.447485147503656],[135.39724280780118,35.447611658899106],[135.39722481940498,35.44770592260423],[135.39715525851278,35.4476970341167]]]}},{"type":"Feature","id":"tran_a510f0aa-7ec8-4405-b3ef-098ccaa4165d-0","properties":{"road_id":"tran_a510f0aa-7ec8-4405-b3ef-098ccaa4165d-0","road_name":"京月山手通線","road_class":"1040","road_function":"4","source":"Project PLATEAU 舞鶴市2025 道路LOD1"},"geometry":{"type":"Polygon","coordinates":[[[135.3991763853757,35.44762382117753],[135.39915723076675,35.44761490053922],[135.399156625797,35.44761461879405],[135.399154085774,35.44761556997433],[135.39913625662652,35.44758368986332],[135.3991439452233,35.44755704697183],[135.39921122008926,35.44753202271869],[135.39921165082583,35.44753277596356],[135.39924132622892,35.44758619581468],[135.39925093380378,35.447597781421536],[135.3992540917918,35.44761308185664],[135.3991763853757,35.44762382117753]]]}},{"type":"Feature","id":"tran_d12f34b4-c4ef-4c15-b9d6-7e4eb1dd0acc-0","properties":{"road_id":"tran_d12f34b4-c4ef-4c15-b9d6-7e4eb1dd0acc-0","road_name":"青山一号通線","road_class":"1040","road_function":"4","source":"Project PLATEAU 舞鶴市2025 道路LOD1"},"geometry":{"type":"Polygon","coordinates":[[[135.3986941165416,35.44812845218997],[135.39901060678824,35.44800834043433],[135.39921038647964,35.44793162157835],[135.39923045766915,35.44796661863593],[135.3988097042335,35.44812388992393],[135.39870840427696,35.44816259590843],[135.3986941165416,35.44812845218997]]]}},{"type":"Feature","id":"tran_e6885f03-2898-4b6b-9c06-98695356df90-0","properties":{"road_id":"tran_e6885f03-2898-4b6b-9c06-98695356df90-0","road_name":"椿川通線","road_class":"1040","road_function":"4","source":"Project PLATEAU 舞鶴市2025 道路LOD1"},"geometry":{"type":"Polygon","coordinates":[[[135.39813213723053,35.44729493041284],[135.39816619542665,35.447306998554645],[135.39819548221215,35.44736484412386],[135.39817297821259,35.44737247331377],[135.39816696909335,35.44739542881429],[135.39809976771093,35.44741066681344],[135.39809815432181,35.44740590243262],[135.398066698733,35.44730918074184],[135.39813213723053,35.44729493041284]]]}},{"type":"Feature","id":"tran_2eaeb4fd-f5c7-488a-a709-ab17e05f3638-0","properties":{"road_id":"tran_2eaeb4fd-f5c7-488a-a709-ab17e05f3638-0","road_name":"京月中央通線","road_class":"1040","road_function":"4","source":"Project PLATEAU 舞鶴市2025 道路LOD1"},"geometry":{"type":"Polygon","coordinates":[[[135.39944870130913,35.44957123325492],[135.39945856168538,35.449601523464835],[135.39948465289132,35.44968853423558],[135.39941869966069,35.449701776085284],[135.39938553957833,35.449687279912006],[135.39937841458115,35.449688549520644],[135.39936037789914,35.4496207754532],[135.3993817880135,35.44958581789573],[135.39944870130913,35.44957123325492]]]}},{"type":"Feature","id":"tran_52dc3d02-c8a5-44ec-a025-1be29f412518-0","properties":{"road_id":"tran_52dc3d02-c8a5-44ec-a025-1be29f412518-0","road_name":"京月通線","road_class":"1040","road_function":"4","source":"Project PLATEAU 舞鶴市2025 道路LOD1"},"geometry":{"type":"Polygon","coordinates":[[[135.39866185863306,35.44950318207682],[135.39895479709068,35.44939566280677],[135.39922257084086,35.449294598641735],[135.39927168149987,35.44934171441849],[135.39900977461542,35.44943893282139],[135.3986914757349,35.44955675507248],[135.39866185863306,35.44950318207682]]]}},{"type":"Feature","id":"tran_f5e949cd-aa82-4349-8bff-0eea9b5d6862-0","properties":{"road_id":"tran_f5e949cd-aa82-4349-8bff-0eea9b5d6862-0","road_name":"東椿線","road_class":"1040","road_function":"4","source":"Project PLATEAU 舞鶴市2025 道路LOD1"},"geometry":{"type":"Polygon","coordinates":[[[135.39767195002605,35.44639872397431],[135.39767032033592,35.44639943936252],[135.39765780626604,35.44640839083308],[135.397649453032,35.44642069820713],[135.39763896711617,35.446433824089645],[135.39754113360726,35.44638148896595],[135.39753780764292,35.44636957311187],[135.39752624976205,35.44635992039904],[135.3975401658023,35.44634876275767],[135.39755604815832,35.44634604860359],[135.39767195002605,35.44639872397431]]]}},{"type":"Feature","id":"tran_145340ba-2aec-49cc-84b0-e2ba05c52b1e-0","properties":{"road_id":"tran_145340ba-2aec-49cc-84b0-e2ba05c52b1e-0","road_name":"椿２号線","road_class":"1040","road_function":"4","source":"Project PLATEAU 舞鶴市2025 道路LOD1"},"geometry":{"type":"Polygon","coordinates":[[[135.39803794273138,35.447090743057494],[135.39811320585153,35.44704136503104],[135.39820357650572,35.44697628445121],[135.39822668036112,35.44695053060989],[135.39832863206203,35.44680942939821],[135.39833108085926,35.44680601631823],[135.39828540986787,35.4467706344687],[135.39834357855435,35.44669565826036],[135.39844492110203,35.446739970847226],[135.3983446387244,35.44687882610167],[135.39826152850895,35.44698964347613],[135.39824583358117,35.44701155917562],[135.39809165100593,35.447110574495426],[135.3980776176644,35.44713123650977],[135.39803794273138,35.447090743057494]]]}},{"type":"Feature","id":"tran_fb2a32f7-0e39-4dd0-ab95-21c668751a18-0","properties":{"road_id":"tran_fb2a32f7-0e39-4dd0-ab95-21c668751a18-0","road_name":null,"road_class":"1040","road_function":"9020","source":"Project PLATEAU 舞鶴市2025 道路LOD1"},"geometry":{"type":"Polygon","coordinates":[[[135.39966814251858,35.44979233552071],[135.39971585706195,35.44989387191364],[135.39969323272732,35.4499009885634],[135.3996455171069,35.44979945215644],[135.39966814251858,35.44979233552071]]]}},{"type":"Feature","id":"tran_60f2790d-4663-4207-abc1-0a006c4ab9b6-0","properties":{"road_id":"tran_60f2790d-4663-4207-abc1-0a006c4ab9b6-0","road_name":"青山通線","road_class":"1040","road_function":"4","source":"Project PLATEAU 舞鶴市2025 道路LOD1"},"geometry":{"type":"Polygon","coordinates":[[[135.39930300486915,35.448298871574124],[135.39923882687145,35.44832270948671],[135.39902331973522,35.44840249158911],[135.39887320258225,35.44845808110078],[135.3988465771936,35.44840927344467],[135.39917586139612,35.44828715177469],[135.39927629101712,35.4482502244674],[135.39930300486915,35.448298871574124]]]}},{"type":"Feature","id":"tran_532f8f74-c6bb-4258-ba28-170db4ae1c77-0","properties":{"road_id":"tran_532f8f74-c6bb-4258-ba28-170db4ae1c77-0","road_name":"京月通線","road_class":"1040","road_function":"4","source":"Project PLATEAU 舞鶴市2025 道路LOD1"},"geometry":{"type":"Polygon","coordinates":[[[135.39765546441296,35.449838603044064],[135.3975654955811,35.44984738988638],[135.3975883402298,35.44978789731913],[135.39768282236585,35.44977764220795],[135.39765546441296,35.449838603044064]]]}},{"type":"Feature","id":"tran_90f35e03-d0fa-4f5b-ac9f-5cdb128acea9-0","properties":{"road_id":"tran_90f35e03-d0fa-4f5b-ac9f-5cdb128acea9-0","road_name":"青山通線","road_class":"1040","road_function":"4","source":"Project PLATEAU 舞鶴市2025 道路LOD1"},"geometry":{"type":"Polygon","coordinates":[[[135.39878108736823,35.44849097383851],[135.3985163140173,35.44858880789288],[135.39821254940674,35.44870077911037],[135.39818415854236,35.448652413206254],[135.39847478131392,35.44854488353028],[135.39875898296881,35.448441557705095],[135.39878108736823,35.44849097383851]]]}},{"type":"Feature","id":"tran_89dc72ab-ae98-460b-a26e-705c6e4738a6-0","properties":{"road_id":"tran_89dc72ab-ae98-460b-a26e-705c6e4738a6-0","road_name":"青山一号通線","road_class":"1040","road_function":"4","source":"Project PLATEAU 舞鶴市2025 道路LOD1"},"geometry":{"type":"Polygon","coordinates":[[[135.3980247104822,35.448378227483374],[135.39831578247725,35.44826943757372],[135.39859823744783,35.44816403021545],[135.39861925697747,35.448196224419874],[135.39837348493148,35.44828685155936],[135.39804706753998,35.44840844449489],[135.3980247104822,35.448378227483374]]]}},{"type":"Feature","id":"tran_2f9e80dc-ffe5-482d-b7fa-315d45dd602a-0","properties":{"road_id":"tran_2f9e80dc-ffe5-482d-b7fa-315d45dd602a-0","road_name":"京月西通線","road_class":"1040","road_function":"4","source":"Project PLATEAU 舞鶴市2025 道路LOD1"},"geometry":{"type":"Polygon","coordinates":[[[135.39803777185364,35.44842894984335],[135.39816127697244,35.44864824288303],[135.39810099733955,35.44866624058379],[135.39803751655668,35.44855198834249],[135.39802719100493,35.448533278078095],[135.39797879807702,35.44844911733233],[135.39803777185364,35.44842894984335]]]}},{"type":"Feature","id":"tran_7512c926-0e66-4407-81f6-9f69952b1f3c-0","properties":{"road_id":"tran_7512c926-0e66-4407-81f6-9f69952b1f3c-0","road_name":"京月山手通線","road_class":"1040","road_function":"4","source":"Project PLATEAU 舞鶴市2025 道路LOD1"},"geometry":{"type":"Polygon","coordinates":[[[135.39932708952978,35.447967281401965],[135.39933652208404,35.44801320744855],[135.39937718516344,35.44821459364024],[135.3993019031628,35.448224771803524],[135.39925119464147,35.44797771879072],[135.39932708952978,35.447967281401965]]]}},{"type":"Feature","id":"tran_6c8bb5ec-8c31-4153-84c8-3e6e31047e0b-0","properties":{"road_id":"tran_6c8bb5ec-8c31-4153-84c8-3e6e31047e0b-0","road_name":"亀岩１号線","road_class":"1040","road_function":"4","source":"Project PLATEAU 舞鶴市2025 道路LOD1"},"geometry":{"type":"Polygon","coordinates":[[[135.39901612649538,35.44983482608604],[135.3989542224166,35.44984776119151],[135.39892239521353,35.4498362361995],[135.3988918908137,35.449784074084505],[135.3989949301571,35.44974372800369],[135.39902579885265,35.44979651294343],[135.39901154598016,35.44982014855067],[135.39901612649538,35.44983482608604]]]}},{"type":"Feature","id":"tran_d2ca774a-d220-4276-9e11-45e5c4ebaf05-0","properties":{"road_id":"tran_d2ca774a-d220-4276-9e11-45e5c4ebaf05-0","road_name":"京月通線","road_class":"1040","road_function":"4","source":"Project PLATEAU 舞鶴市2025 道路LOD1"},"geometry":{"type":"Polygon","coordinates":[[[135.3986914757349,35.44955675507248],[135.39863541856943,35.44957750519942],[135.39859965537238,35.449590914898884],[135.39856929682787,35.44953670338957],[135.39857733253217,35.44952268173595],[135.3985740226618,35.44951665500917],[135.39863504679715,35.449494214897754],[135.39866185863306,35.44950318207682],[135.3986914757349,35.44955675507248]]]}},{"type":"Feature","id":"tran_16be3e96-9c23-4ecd-a128-97d35ff0bf6d-0","properties":{"road_id":"tran_16be3e96-9c23-4ecd-a128-97d35ff0bf6d-0","road_name":"東椿２号線","road_class":"1040","road_function":"4","source":"Project PLATEAU 舞鶴市2025 道路LOD1"},"geometry":{"type":"Polygon","coordinates":[[[135.39684443777966,35.4471013761489],[135.3965925906962,35.44719440218681],[135.39656835849965,35.44722366639559],[135.39656164338186,35.44725274774036],[135.3965578047801,35.44727986040367],[135.3965141667922,35.447532933864835],[135.39649443798905,35.44765244883736],[135.39642593469577,35.447644312955106],[135.39644472848897,35.44753835473466],[135.39648095298503,35.447334010359675],[135.39648256238993,35.44732500450156],[135.39649050372424,35.447279523986985],[135.39650276308845,35.44717177988296],[135.3965262078961,35.447159456989176],[135.39656710157186,35.447141182892786],[135.39661293109123,35.44711112523738],[135.3966522988278,35.4471052826728],[135.3967345520508,35.447080094226905],[135.3968242655708,35.44705433423517],[135.39684443777966,35.4471013761489]]]}},{"type":"Feature","id":"tran_999958f1-1c94-4fd0-84e7-4051144576dd-0","properties":{"road_id":"tran_999958f1-1c94-4fd0-84e7-4051144576dd-0","road_name":"京月山手通線","road_class":"1040","road_function":"4","source":"Project PLATEAU 舞鶴市2025 道路LOD1"},"geometry":{"type":"Polygon","coordinates":[[[135.39944518121618,35.44853949208622],[135.39945930408751,35.44860686797635],[135.39938380574557,35.44861746438359],[135.39936205712524,35.44860906338957],[135.39934473663973,35.448577819126626],[135.39935559968316,35.4485737869002],[135.39936987713386,35.44855006122914],[135.39944518121618,35.44853949208622]]]}},{"type":"Feature","id":"tran_364bda4c-feed-43df-b7bf-333466ea2199-0","properties":{"road_id":"tran_364bda4c-feed-43df-b7bf-333466ea2199-0","road_name":"青山二号通線","road_class":"1040","road_function":"4","source":"Project PLATEAU 舞鶴市2025 道路LOD1"},"geometry":{"type":"Polygon","coordinates":[[[135.399154085774,35.44761556997433],[135.39893879279416,35.44769619196892],[135.39852786048485,35.44785125770586],[135.3985175515104,35.44781551128526],[135.3987188209524,35.447739445903565],[135.3989828266773,35.44764088554132],[135.3991362566265,35.447583689863286],[135.399154085774,35.44761556997433]]]}},{"type":"Feature","id":"tran_31146d98-4ce8-46c7-b259-1d89b4d8dabe-0","properties":{"road_id":"tran_31146d98-4ce8-46c7-b259-1d89b4d8dabe-0","road_name":"京月一号線","road_class":"1040","road_function":"4","source":"Project PLATEAU 舞鶴市2025 道路LOD1"},"geometry":{"type":"Polygon","coordinates":[[[135.39777282067706,35.449496857489784],[135.39787192547655,35.4494575103875],[135.39841099425342,35.449256213275746],[135.3984275975393,35.44928991786529],[135.39839523129817,35.44930201548528],[135.3982776950426,35.449346138660914],[135.39810105995977,35.44941232155967],[135.39787162064866,35.44949843197843],[135.39779034654728,35.4495285373017],[135.39777282067706,35.449496857489784]]]}},{"type":"Feature","id":"tran_801bec36-0012-4b0a-87c0-f30b8789ab80-0","properties":{"road_id":"tran_801bec36-0012-4b0a-87c0-f30b8789ab80-0","road_name":"東椿２号線","road_class":"1040","road_function":"4","source":"Project PLATEAU 舞鶴市2025 道路LOD1"},"geometry":{"type":"Polygon","coordinates":[[[135.39698346459403,35.44701618789067],[135.39696439169384,35.44713221622891],[135.39689790763285,35.447124898244866],[135.3968863325365,35.44711131956379],[135.39686923847555,35.44709924657509],[135.39686232367782,35.44709984033203],[135.39684443777966,35.4471013761489],[135.3968242655708,35.44705433423517],[135.39683544958137,35.447051122895914],[135.39688976293218,35.44700587402163],[135.39698346459403,35.44701618789067]]]}},{"type":"Feature","id":"tran_0a1b572a-1eaa-47ae-94b8-cd9246682bc2-0","properties":{"road_id":"tran_0a1b572a-1eaa-47ae-94b8-cd9246682bc2-0","road_name":"京月二号線","road_class":"1040","road_function":"4","source":"Project PLATEAU 舞鶴市2025 道路LOD1"},"geometry":{"type":"Polygon","coordinates":[[[135.39766609159557,35.449199316981485],[135.39787442718384,35.44912166579867],[135.39825564878552,35.448978171440004],[135.39827611603636,35.449010723503626],[135.39807606408206,35.44908553313927],[135.39787413378178,35.44916105418425],[135.39768543413638,35.449233194131224],[135.39766609159557,35.449199316981485]]]}},{"type":"Feature","id":"tran_7b543eba-db00-4b06-ad5f-5d66992a30bc-0","properties":{"road_id":"tran_7b543eba-db00-4b06-ad5f-5d66992a30bc-0","road_name":null,"road_class":"1040","road_function":"9020","source":"Project PLATEAU 舞鶴市2025 道路LOD1"},"geometry":{"type":"Polygon","coordinates":[[[135.39836069190517,35.449680084690925],[135.39841379838288,35.449776401471574],[135.3983876851922,35.449786042410615],[135.39833482900124,35.44969014240712],[135.39836069190517,35.449680084690925]]]}},{"type":"Feature","id":"tran_e811eda9-d73e-4563-bb7e-733bf10f6f3b-0","properties":{"road_id":"tran_e811eda9-d73e-4563-bb7e-733bf10f6f3b-0","road_name":"亀岩１号線","road_class":"1040","road_function":"4","source":"Project PLATEAU 舞鶴市2025 道路LOD1"},"geometry":{"type":"Polygon","coordinates":[[[135.39892239521353,35.4498362361995],[135.39858749239892,35.44996492729927],[135.39855832491455,35.44991624307685],[135.39872090455844,35.44985102517025],[135.3988918908137,35.449784074084505],[135.39892239521353,35.4498362361995]]]}},{"type":"Feature","id":"tran_c71155b1-93e2-4d82-94cc-6e18472b7944-0","properties":{"road_id":"tran_c71155b1-93e2-4d82-94cc-6e18472b7944-0","road_name":"東椿２号線","road_class":"1040","road_function":"4","source":"Project PLATEAU 舞鶴市2025 道路LOD1"},"geometry":{"type":"Polygon","coordinates":[[[135.39696439169384,35.44713221622891],[135.3969398078811,35.44728176920544],[135.39693007565597,35.447331387200535],[135.39689604897046,35.4475216810059],[135.39687221405515,35.447660105628884],[135.39680630831612,35.44765303403727],[135.3968285807811,35.44751404267996],[135.39686204231572,35.44732554885144],[135.39686986319876,35.44728141979466],[135.3968878648291,35.447156937573304],[135.39689790763285,35.447124898244866],[135.39696439169384,35.44713221622891]]]}},{"type":"Feature","id":"tran_b2867344-c563-423d-9ee5-903fbbe7a881-0","properties":{"road_id":"tran_b2867344-c563-423d-9ee5-903fbbe7a881-0","road_name":"京月中央通線","road_class":"1040","road_function":"4","source":"Project PLATEAU 舞鶴市2025 道路LOD1"},"geometry":{"type":"Polygon","coordinates":[[[135.39956944350763,35.449815524190676],[135.39955499708728,35.44982059927667],[135.3995376123045,35.449851980338586],[135.399470381089,35.449866052352434],[135.39946606247096,35.44985223738273],[135.3994343396903,35.44975146110423],[135.39949940977493,35.4497377464351],[135.39951652318857,35.449732513357084],[135.39959728597293,35.44971542807814],[135.39962510446804,35.44973719979093],[135.39967444040005,35.449779562591345],[135.39966814251858,35.44979233552071],[135.3996455171069,35.44979945215644],[135.39963094387176,35.44979446079698],[135.39956944350763,35.449815524190676]]]}},{"type":"Feature","id":"tran_8cf1096c-9d1b-41f6-a582-36220101696c-0","properties":{"road_id":"tran_8cf1096c-9d1b-41f6-a582-36220101696c-0","road_name":"椿川通線","road_class":"1040","road_function":"4","source":"Project PLATEAU 舞鶴市2025 道路LOD1"},"geometry":{"type":"Polygon","coordinates":[[[135.39764356386843,35.44919199345976],[135.3975868371719,35.44920464843906],[135.3975803834774,35.44918527833315],[135.39754489608114,35.449069272609655],[135.39751226736686,35.44896878505178],[135.39756721768242,35.44895643981178],[135.39764356386843,35.44919199345976]]]}},{"type":"Feature","id":"tran_5dbede0f-bde5-4be7-9a27-ac33c59fa778-0","properties":{"road_id":"tran_5dbede0f-bde5-4be7-9a27-ac33c59fa778-0","road_name":"京月通線","road_class":"1040","road_function":"4","source":"Project PLATEAU 舞鶴市2025 道路LOD1"},"geometry":{"type":"Polygon","coordinates":[[[135.39786659589154,35.449758908653685],[135.39786967684617,35.449759375617084],[135.39801850926008,35.449743441236755],[135.3981330139741,35.44970044728112],[135.39816337260237,35.449754583573316],[135.39815168982864,35.44975834722512],[135.3980374694879,35.44980086418866],[135.39801276471803,35.44980479725623],[135.3978692404119,35.44981796379492],[135.3978631108297,35.44981860475778],[135.39786659589154,35.449758908653685]]]}},{"type":"Feature","id":"tran_0c68b6ff-f719-4619-b8a0-eb18bd5c7799-0","properties":{"road_id":"tran_0c68b6ff-f719-4619-b8a0-eb18bd5c7799-0","road_name":"京月中央通線","road_class":"1040","road_function":"4","source":"Project PLATEAU 舞鶴市2025 道路LOD1"},"geometry":{"type":"Polygon","coordinates":[[[135.39872494906265,35.447400443092086],[135.3986557289854,35.447426238362375],[135.3986289778577,35.44737817090855],[135.39864379605396,35.44734083701624],[135.3986835833528,35.44732605012828],[135.39869704073104,35.44735029640593],[135.39872494906265,35.447400443092086]]]}},{"type":"Feature","id":"tran_da90d0a6-ad72-459b-9e97-629153d1ac8d-0","properties":{"road_id":"tran_da90d0a6-ad72-459b-9e97-629153d1ac8d-0","road_name":null,"road_class":"1040","road_function":"9020","source":"Project PLATEAU 舞鶴市2025 道路LOD1"},"geometry":{"type":"Polygon","coordinates":[[[135.39746204885893,35.447744971145305],[135.39745082516163,35.447753674728744],[135.39743693917325,35.4477396339821],[135.39744971415132,35.447729727435664],[135.39745555748956,35.447739365999205],[135.39746204885893,35.447744971145305]]]}},{"type":"Feature","id":"tran_ec2492b0-9346-48c0-a4b3-4ae3eb06bfab-0","properties":{"road_id":"tran_ec2492b0-9346-48c0-a4b3-4ae3eb06bfab-0","road_name":"京月西通線","road_class":"1040","road_function":"4","source":"Project PLATEAU 舞鶴市2025 道路LOD1"},"geometry":{"type":"Polygon","coordinates":[[[135.39820586988293,35.44872499321182],[135.39814219693895,35.448740089568794],[135.39812054984634,35.4487328606653],[135.39809435134336,35.448685947895015],[135.39810099733955,35.44866624058374],[135.39816127697244,35.448648242882996],[135.39818415854236,35.448652413206254],[135.39821254940674,35.44870077911037],[135.39820586988293,35.44872499321182]]]}},{"type":"Feature","id":"tran_c66f5db7-0bb4-4fdd-ae67-2e9b2e19991e-0","properties":{"road_id":"tran_c66f5db7-0bb4-4fdd-ae67-2e9b2e19991e-0","road_name":"京月一号線","road_class":"1040","road_function":"4","source":"Project PLATEAU 舞鶴市2025 道路LOD1"},"geometry":{"type":"Polygon","coordinates":[[[135.39936863840106,35.44893900498356],[135.3992332121513,35.448989259682364],[135.39918293901962,35.44900965133244],[135.39916534208447,35.44897621231584],[135.3992886200269,35.44893013377952],[135.3993494807644,35.44890627866404],[135.39936863840106,35.44893900498356]]]}},{"type":"Feature","id":"tran_e4e4a0c9-8769-455f-a57a-5e4f2a0ad8ed-0","properties":{"road_id":"tran_e4e4a0c9-8769-455f-a57a-5e4f2a0ad8ed-0","road_name":"京月中央通線","road_class":"1040","road_function":"4","source":"Project PLATEAU 舞鶴市2025 道路LOD1"},"geometry":{"type":"Polygon","coordinates":[[[135.39870010844086,35.44818184434316],[135.3986378586047,35.448198210000086],[135.39861925697747,35.448196224419874],[135.39859823744783,35.44816403021541],[135.39860652372684,35.44814577326948],[135.39866793120157,35.44812417536852],[135.3986941165416,35.44812845218997],[135.39870840427696,35.44816259590843],[135.39870010844086,35.44818184434316]]]}},{"type":"Feature","id":"tran_05dbefba-6a77-40ea-88ac-a568a63a2f05-0","properties":{"road_id":"tran_05dbefba-6a77-40ea-88ac-a568a63a2f05-0","road_name":"京月中央通線","road_class":"1040","road_function":"4","source":"Project PLATEAU 舞鶴市2025 道路LOD1"},"geometry":{"type":"Polygon","coordinates":[[[135.39852465887333,35.4478670160869],[135.39846272628023,35.447885186917986],[135.39844448067979,35.44787977690032],[135.39842202152005,35.44784847688112],[135.39843065790294,35.44782787807594],[135.3984941225142,35.44781106788111],[135.3985175515104,35.44781551128526],[135.39852786048485,35.44785125770586],[135.39852465887333,35.4478670160869]]]}},{"type":"Feature","id":"tran_ef3ee8d1-b91b-426e-bb5b-8a329259a9c5-0","properties":{"road_id":"tran_ef3ee8d1-b91b-426e-bb5b-8a329259a9c5-0","road_name":"京月山手通線","road_class":"1040","road_function":"4","source":"Project PLATEAU 舞鶴市2025 道路LOD1"},"geometry":{"type":"Polygon","coordinates":[[[135.39946375560845,35.44896022228756],[135.39944172207936,35.44913992790317],[135.39943614771406,35.449195304103675],[135.39941674551199,35.44938804652161],[135.3994100967192,35.44945264312261],[135.39936445768004,35.44919047206581],[135.39938879540662,35.448954068346104],[135.39946375560845,35.44896022228756]]]}},{"type":"Feature","id":"tran_8b82886c-fea3-49b1-84f9-2829dad143e2-0","properties":{"road_id":"tran_8b82886c-fea3-49b1-84f9-2829dad143e2-0","road_name":"京月二号線","road_class":"1040","road_function":"4","source":"Project PLATEAU 舞鶴市2025 道路LOD1"},"geometry":{"type":"Polygon","coordinates":[[[135.39893555788043,35.448768289556185],[135.39864727091052,35.448872767244765],[135.3983950844576,35.44896651822383],[135.3983647071437,35.44897781359556],[135.39834766132125,35.44894437720772],[135.39863508647633,35.44883737205335],[135.39891497825877,35.448736007459665],[135.39893555788043,35.448768289556185]]]}},{"type":"Feature","id":"tran_d94f5baa-2589-4a6c-9a13-cd5235461adc-0","properties":{"road_id":"tran_d94f5baa-2589-4a6c-9a13-cd5235461adc-0","road_name":null,"road_class":"1040","road_function":"9020","source":"Project PLATEAU 舞鶴市2025 道路LOD1"},"geometry":{"type":"Polygon","coordinates":[[[135.39752612504566,35.44792233995214],[135.39751681892704,35.44792950562323],[135.39738019239257,35.447815698234905],[135.39735649603742,35.44780269013348],[135.3973630651569,35.44779334866373],[135.39739365542286,35.44781252056337],[135.39752612504566,35.44792233995214]]]}},{"type":"Feature","id":"tran_76767286-e012-4708-b1f8-4c093930945b-0","properties":{"road_id":"tran_76767286-e012-4708-b1f8-4c093930945b-0","road_name":"京月通線","road_class":"1040","road_function":"4","source":"Project PLATEAU 舞鶴市2025 道路LOD1"},"geometry":{"type":"Polygon","coordinates":[[[135.39786659589157,35.449758908653706],[135.3978631108297,35.44981860475778],[135.39784560429055,35.44982040134363],[135.39768282236582,35.44977764220795],[135.39770202008535,35.44974402599988],[135.3977135808777,35.449715240096126],[135.3977206300568,35.449685798907296],[135.39772354039224,35.44966481103778],[135.39772579560886,35.449634515178865],[135.39786659589157,35.449758908653706]]]}},{"type":"Feature","id":"tran_25f981e5-eb3f-49e5-9355-b0c65bae04d8-0","properties":{"road_id":"tran_25f981e5-eb3f-49e5-9355-b0c65bae04d8-0","road_name":"椿川通線","road_class":"1040","road_function":"4","source":"Project PLATEAU 舞鶴市2025 道路LOD1"},"geometry":{"type":"Polygon","coordinates":[[[135.39780007027503,35.449612303955654],[135.39784371661028,35.44971002933323],[135.39786659589157,35.449758908653706],[135.39772579560886,35.449634515178865],[135.39772647824867,35.44962534480877],[135.3977250065968,35.44960109007359],[135.39771849741274,35.44957284409001],[135.39771522141564,35.44956231900687],[135.39777242178306,35.44955039807224],[135.39780007027503,35.449612303955654]]]}},{"type":"Feature","id":"tran_545eeb71-131d-4887-ae77-e601e07f0fed-0","properties":{"road_id":"tran_545eeb71-131d-4887-ae77-e601e07f0fed-0","road_name":"京月一号線","road_class":"1040","road_function":"4","source":"Project PLATEAU 舞鶴市2025 道路LOD1"},"geometry":{"type":"Polygon","coordinates":[[[135.39908848393833,35.44904604897757],[135.3988020660982,35.44915089598568],[135.3985211565292,35.44925559127715],[135.39850045003809,35.44922556105476],[135.39878524639207,35.449116650435755],[135.39907399411484,35.449009559785566],[135.39908848393833,35.44904604897757]]]}},{"type":"Feature","id":"tran_c843c176-7e13-4557-a116-7edea6727627-0","properties":{"road_id":"tran_c843c176-7e13-4557-a116-7edea6727627-0","road_name":"京月西通線","road_class":"1040","road_function":"4","source":"Project PLATEAU 舞鶴市2025 道路LOD1"},"geometry":{"type":"Polygon","coordinates":[[[135.3983580417229,35.449000135756684],[135.398484167439,35.44922277575622],[135.39841764021486,35.44923650685001],[135.39829339532514,35.44901279358691],[135.3983580417229,35.449000135756684]]]}},{"type":"Feature","id":"tran_a3c45cb0-d977-4034-ad7c-39e57de9bb13-0","properties":{"road_id":"tran_a3c45cb0-d977-4034-ad7c-39e57de9bb13-0","road_name":"京月西通線","road_class":"1040","road_function":"4","source":"Project PLATEAU 舞鶴市2025 道路LOD1"},"geometry":{"type":"Polygon","coordinates":[[[135.39863504679715,35.449494214897754],[135.3985740226618,35.44951665500917],[135.39845343131688,35.44929707743648],[135.39851284597478,35.449277092195516],[135.39863504679715,35.449494214897754]]]}},{"type":"Feature","id":"tran_56155d6e-dd2c-476e-8322-def1cfa92271-0","properties":{"road_id":"tran_56155d6e-dd2c-476e-8322-def1cfa92271-0","road_name":"京月中央通線","road_class":"1040","road_function":"4","source":"Project PLATEAU 舞鶴市2025 道路LOD1"},"geometry":{"type":"Polygon","coordinates":[[[135.39870010844086,35.44818184434316],[135.39882414699142,35.44840366327011],[135.39876458645975,35.448428695730044],[135.3986378586047,35.448198210000086],[135.39870010844086,35.44818184434316]]]}},{"type":"Feature","id":"tran_183e164d-384d-4677-93cc-b81324b29f1d-0","properties":{"road_id":"tran_183e164d-384d-4677-93cc-b81324b29f1d-0","road_name":"椿川通線","road_class":"1040","road_function":"4","source":"Project PLATEAU 舞鶴市2025 道路LOD1"},"geometry":{"type":"Polygon","coordinates":[[[135.39795330983898,35.44843997632461],[135.3978793083008,35.44846637855359],[135.397862717617,35.448475399847744],[135.39774021476896,35.44859485396332],[135.39755976373138,35.44877414151872],[135.39760291473556,35.448852147718675],[135.39748282034478,35.44889959160235],[135.3974805797505,35.448860279807995],[135.39748252829978,35.44883532102453],[135.3974865240684,35.44881650191173],[135.39749453169645,35.44879148322851],[135.39750239221638,35.448771421456556],[135.3975181152303,35.44874581120448],[135.397564593079,35.448687812435885],[135.39765208257745,35.44859576635244],[135.39767816297783,35.44856993643674],[135.3978106389612,35.44845720241929],[135.39783848664626,35.44843057003194],[135.3978556958988,35.44841244778467],[135.39786671824132,35.44839690870879],[135.39795330983898,35.44843997632461]]]}},{"type":"Feature","id":"tran_ce19760e-8573-4720-adac-d6b3df172bcc-0","properties":{"road_id":"tran_ce19760e-8573-4720-adac-d6b3df172bcc-0","road_name":null,"road_class":"1040","road_function":"9020","source":"Project PLATEAU 舞鶴市2025 道路LOD1"},"geometry":{"type":"Polygon","coordinates":[[[135.39745082516163,35.447753674728744],[135.3974405327773,35.44775993320109],[135.39738918646876,35.447791406580784],[135.3973759654064,35.44777691746082],[135.3974273117064,35.44774553486382],[135.39743693917325,35.4477396339821],[135.39745082516163,35.447753674728744]]]}},{"type":"Feature","id":"tran_c30091a5-6622-4779-b30c-4ac2473ea550-0","properties":{"road_id":"tran_c30091a5-6622-4779-b30c-4ac2473ea550-0","road_name":"椿１号線","road_class":"1040","road_function":"4","source":"Project PLATEAU 舞鶴市2025 道路LOD1"},"geometry":{"type":"Polygon","coordinates":[[[135.39798346093593,35.447113009633505],[135.39795544062727,35.44715212707018],[135.3979283761834,35.44713914567688],[135.397904476597,35.447125298309395],[135.3978814539175,35.44710907564],[135.39786000316948,35.44709033691299],[135.3976574687265,35.44689292261092],[135.39757021075042,35.44680470981969],[135.39761194293231,35.44676845266391],[135.39790285132895,35.44706546491831],[135.39798346093593,35.447113009633505]]]}},{"type":"Feature","id":"tran_70998bf8-62da-481d-9b04-a05b13dfca04-0","properties":{"road_id":"tran_70998bf8-62da-481d-9b04-a05b13dfca04-0","road_name":"京月山手通線","road_class":"1040","road_function":"4","source":"Project PLATEAU 舞鶴市2025 道路LOD1"},"geometry":{"type":"Polygon","coordinates":[[[135.39940189567938,35.448866247967175],[135.39941351372974,35.44875552489794],[135.39938380574557,35.44861746438359],[135.39945930408751,35.44860686797635],[135.39948944791558,35.44875067457045],[135.39947454638747,35.44887221230678],[135.39940189567938,35.448866247967175]]]}},{"type":"Feature","id":"tran_cd019e37-2d32-437b-9e07-2ac5ebd8aed6-0","properties":{"road_id":"tran_cd019e37-2d32-437b-9e07-2ac5ebd8aed6-0","road_name":"椿川通線","road_class":"1040","road_function":"4","source":"Project PLATEAU 舞鶴市2025 道路LOD1"},"geometry":{"type":"Polygon","coordinates":[[[135.3984926138524,35.447171607829134],[135.39845335850228,35.44714563862392],[135.39846333831,35.447121981779716],[135.39846520736288,35.447107658983526],[135.39853793843827,35.44707870471803],[135.39857214915455,35.44713624723382],[135.3985841438865,35.44715642238329],[135.3985580683824,35.447166803059574],[135.39854162156186,35.44715653450921],[135.39853262273584,35.44715198272457],[135.39852094676192,35.44715192455386],[135.3984926138524,35.447171607829134]]]}},{"type":"Feature","id":"tran_7a2e1e97-cc33-4628-8e96-0fa50542fa66-0","properties":{"road_id":"tran_7a2e1e97-cc33-4628-8e96-0fa50542fa66-0","road_name":"東椿線","road_class":"1040","road_function":"4","source":"Project PLATEAU 舞鶴市2025 道路LOD1"},"geometry":{"type":"Polygon","coordinates":[[[135.39755142363882,35.44670054152335],[135.3975615453444,35.446716997338896],[135.39761194293234,35.44676845266391],[135.39757021075042,35.44680470981969],[135.39752659689947,35.44681556125447],[135.39743160331716,35.44679886874978],[135.3974615511703,35.44668474891325],[135.39755142363882,35.44670054152335]]]}},{"type":"Feature","id":"tran_5c1ef0d2-7259-4c9f-af7a-42f56a8202bd-0","properties":{"road_id":"tran_5c1ef0d2-7259-4c9f-af7a-42f56a8202bd-0","road_name":"椿川通線","road_class":"1040","road_function":"4","source":"Project PLATEAU 舞鶴市2025 道路LOD1"},"geometry":{"type":"Polygon","coordinates":[[[135.39788748869447,35.448107575877394],[135.39793033091905,35.44824182628227],[135.3980080969491,35.448375529708585],[135.39787517638894,35.448370540159516],[135.39788020326583,35.44834622769367],[135.39788678311118,35.4482911855638],[135.39788555413065,35.44826377716931],[135.39788105995655,35.4482312145649],[135.39784384638952,35.44812511559538],[135.39784169490767,35.44811965321124],[135.39788748869447,35.448107575877394]]]}},{"type":"Feature","id":"tran_91376d43-b87a-4dbd-90c3-d13633cace5b-0","properties":{"road_id":"tran_91376d43-b87a-4dbd-90c3-d13633cace5b-0","road_name":"椿川通線","road_class":"1040","road_function":"4","source":"Project PLATEAU 舞鶴市2025 道路LOD1"},"geometry":{"type":"Polygon","coordinates":[[[135.39825798407878,35.44756940015554],[135.3978849197044,35.44771302450878],[135.39784063348318,35.44772830844181],[135.3978270781814,35.44774392412089],[135.3978501560134,35.4478991685101],[135.3978737591324,35.44804305799309],[135.39781790479768,35.44805778862822],[135.3978146989148,35.448045287305895],[135.3978106830219,35.44802246209897],[135.39780095455558,35.447938403993156],[135.39778264692674,35.44779345924133],[135.39777082295032,35.44770975123334],[135.39776847748672,35.447684500602776],[135.39777241940854,35.44767289233076],[135.39777897809626,35.44766490357474],[135.397787282431,35.44765917519934],[135.39779843927843,35.447654994316984],[135.39781012270936,35.44765406106571],[135.39785154432326,35.44765363669851],[135.39788539234723,35.44764956898312],[135.39792023844356,35.44764460484541],[135.3979635050416,35.44763310253916],[135.39802921423387,35.44761071516043],[135.39807374658585,35.44759209814161],[135.39808845735035,35.447583878694836],[135.39811238223524,35.44756624058468],[135.3981235938429,35.44755484882197],[135.39813285608992,35.44753866997046],[135.3981347856746,35.447530943553865],[135.39813512689386,35.447529577248204],[135.39825798407878,35.44756940015554]]]}},{"type":"Feature","id":"tran_f7baea47-eb9b-41b2-aa6d-dbb3bb0ee0a5-0","properties":{"road_id":"tran_f7baea47-eb9b-41b2-aa6d-dbb3bb0ee0a5-0","road_name":null,"road_class":"1040","road_function":"9020","source":"Project PLATEAU 舞鶴市2025 道路LOD1"},"geometry":{"type":"Polygon","coordinates":[[[135.39744971415132,35.447729727435664],[135.39743693917325,35.4477396339821],[135.39743278964716,35.44773474541113],[135.3974260341455,35.447710013685374],[135.3974245589746,35.447686210585324],[135.39742430271406,35.44766151019812],[135.3974333330471,35.447632260083616],[135.39744793886973,35.447608716599284],[135.39746783643247,35.447584658711435],[135.39755000089366,35.44749745387543],[135.39766540995547,35.44738373349687],[135.3976804385689,35.44736253524521],[135.39768807918708,35.44734238230746],[135.39768934966645,35.44731976365825],[135.39768673423896,35.447301181988976],[135.39768222561747,35.4472854753897],[135.39766581905934,35.44725492649417],[135.39768026423502,35.447252925541584],[135.3976985270576,35.447285556717965],[135.39770160433935,35.4473012561758],[135.39770266742104,35.44732118240596],[135.39770193816696,35.447345155510966],[135.39769395670118,35.44736674928191],[135.39767791897768,35.44739028565356],[135.39756416984804,35.447503022929816],[135.39748144267824,35.447591757726855],[135.39746254215115,35.44761509932676],[135.397448818403,35.447638556988245],[135.39744215457156,35.447660607902534],[135.39744198458865,35.447683412494314],[135.3974428116444,35.44770550024587],[135.39744815796885,35.447727160518326],[135.39744971415132,35.447729727435664]]]}},{"type":"Feature","id":"tran_90503fa8-bf14-4ac8-943a-878e0f0e9cdc-0","properties":{"road_id":"tran_90503fa8-bf14-4ac8-943a-878e0f0e9cdc-0","road_name":"東椿線","road_class":"1040","road_function":"4","source":"Project PLATEAU 舞鶴市2025 道路LOD1"},"geometry":{"type":"Polygon","coordinates":[[[135.397946563348,35.44634330854154],[135.39793397370673,35.44636140213857],[135.39791883256186,35.44635434749245],[135.39790083768838,35.44630870849222],[135.39792989598695,35.4463010364448],[135.397946563348,35.44634330854154]]]}},{"type":"Feature","id":"tran_143c570c-7187-424d-819c-2575bb7d6cca-0","properties":{"road_id":"tran_143c570c-7187-424d-819c-2575bb7d6cca-0","road_name":"青山通線","road_class":"1040","road_function":"4","source":"Project PLATEAU 舞鶴市2025 道路LOD1"},"geometry":{"type":"Polygon","coordinates":[[[135.39749742423646,35.44896501527493],[135.3974122233589,35.44900118647172],[135.39739190832103,35.448948263605224],[135.39747544005888,35.44891433756722],[135.39749742423646,35.44896501527493]]]}},{"type":"Feature","id":"tran_5ad1d071-6e2d-4df7-9f7b-f352f83846e8-0","properties":{"road_id":"tran_5ad1d071-6e2d-4df7-9f7b-f352f83846e8-0","road_name":"東椿線","road_class":"1040","road_function":"4","source":"Project PLATEAU 舞鶴市2025 道路LOD1"},"geometry":{"type":"Polygon","coordinates":[[[135.39755604815832,35.44634604860359],[135.39757198896314,35.44633549083843],[135.39764716738162,35.44632829427054],[135.39775540273874,35.446319640059414],[135.39784013459692,35.44631645714611],[135.39789536852567,35.44631015247381],[135.39790083768838,35.446308708492246],[135.39791883256188,35.44635434749245],[135.39788362032192,35.44636417731666],[135.39776500197965,35.446376655828395],[135.39768899740383,35.446391240651735],[135.39767195002605,35.44639872397431],[135.39755604815832,35.44634604860359]]]}},{"type":"Feature","id":"tran_c5100996-ecf1-4830-a0ca-dc8e34f3fec1-0","properties":{"road_id":"tran_c5100996-ecf1-4830-a0ca-dc8e34f3fec1-0","road_name":"池辺４号線","road_class":"1040","road_function":"4","source":"Project PLATEAU 舞鶴市2025 道路LOD1"},"geometry":{"type":"Polygon","coordinates":[[[135.39576697296803,35.44785856359546],[135.39572224415232,35.447877584401425],[135.39571760725616,35.44783623515374],[135.39583175926597,35.44781237609611],[135.3958481054809,35.447806598862265],[135.39586214187972,35.447800359372124],[135.39586746552848,35.447795518505245],[135.39587771465537,35.44778015601969],[135.39590156835933,35.44778685553181],[135.39589549084877,35.447804131813434],[135.39588792106002,35.44781473033953],[135.39588016801454,35.44782037030184],[135.39576697296803,35.44785856359546]]]}},{"type":"Feature","id":"tran_df876871-8e23-4612-9810-a4a63d3b6f6d-0","properties":{"road_id":"tran_df876871-8e23-4612-9810-a4a63d3b6f6d-0","road_name":"東椿線","road_class":"1040","road_function":"4","source":"Project PLATEAU 舞鶴市2025 道路LOD1"},"geometry":{"type":"Polygon","coordinates":[[[135.39734267180495,35.44699884330688],[135.39739000485574,35.44695105273117],[135.39741397027404,35.44696694654768],[135.39736797427267,35.44701338323725],[135.39734267180495,35.44699884330688]]]}},{"type":"Feature","id":"tran_5545a48c-2f12-4535-b9c7-dd61220c6772-0","properties":{"road_id":"tran_5545a48c-2f12-4535-b9c7-dd61220c6772-0","road_name":"京月西通線","road_class":"1040","road_function":"4","source":"Project PLATEAU 舞鶴市2025 道路LOD1"},"geometry":{"type":"Polygon","coordinates":[[[135.39820586988293,35.44872499321182],[135.3982616355183,35.44882505508142],[135.39832511011937,35.448940208561716],[135.39826450319848,35.448957754016156],[135.39820353132174,35.44884675937549],[135.39814219693895,35.448740089568794],[135.39820586988293,35.44872499321182]]]}},{"type":"Feature","id":"tran_76bad277-7ede-4096-a8b6-202490bb9618-0","properties":{"road_id":"tran_76bad277-7ede-4096-a8b6-202490bb9618-0","road_name":"椿川通線","road_class":"1040","road_function":"4","source":"Project PLATEAU 舞鶴市2025 道路LOD1"},"geometry":{"type":"Polygon","coordinates":[[[135.39816696909335,35.447395428814275],[135.39822999448083,35.44751157165553],[135.39813016764435,35.44750043851518],[135.39809976771093,35.447410666813404],[135.39816696909335,35.447395428814275]]]}},{"type":"Feature","id":"tran_fd650dff-0b41-477d-aee4-77706b5f93ff-0","properties":{"road_id":"tran_fd650dff-0b41-477d-aee4-77706b5f93ff-0","road_name":"池辺４号線","road_class":"1040","road_function":"4","source":"Project PLATEAU 舞鶴市2025 道路LOD1"},"geometry":{"type":"Polygon","coordinates":[[[135.39576697296803,35.44785856359546],[135.3957835456819,35.44789807201945],[135.3957564975224,35.44790566920584],[135.39572224415232,35.447877584401425],[135.39576697296803,35.44785856359546]]]}},{"type":"Feature","id":"tran_374ffb80-cc29-4f45-9f98-7c5dfc79b705-0","properties":{"road_id":"tran_374ffb80-cc29-4f45-9f98-7c5dfc79b705-0","road_name":"京月中央通線","road_class":"1040","road_function":"4","source":"Project PLATEAU 舞鶴市2025 道路LOD1"},"geometry":{"type":"Polygon","coordinates":[[[135.39898657956385,35.44869165498037],[135.39892492528702,35.44871676813441],[135.39885903871084,35.44859997954787],[135.39880065496644,35.448496389487566],[135.39886566484677,35.448479226240494],[135.39898657956385,35.44869165498037]]]}},{"type":"Feature","id":"tran_3b303508-c622-4d00-95fa-81e1813fe521-0","properties":{"road_id":"tran_3b303508-c622-4d00-95fa-81e1813fe521-0","road_name":"東椿２号線","road_class":"1040","road_function":"4","source":"Project PLATEAU 舞鶴市2025 道路LOD1"},"geometry":{"type":"Polygon","coordinates":[[[135.39688976293218,35.44700587402163],[135.39689066377017,35.44698848168659],[135.3969863105457,35.446998874759416],[135.39698346459403,35.44701618789067],[135.39688976293218,35.44700587402163]]]}},{"type":"Feature","id":"tran_7d7f8555-adff-4413-a9b3-3c39a3c6a9fb-0","properties":{"road_id":"tran_7d7f8555-adff-4413-a9b3-3c39a3c6a9fb-0","road_name":"京月二号線","road_class":"1040","road_function":"4","source":"Project PLATEAU 舞鶴市2025 道路LOD1"},"geometry":{"type":"Polygon","coordinates":[[[135.39936205712524,35.44860906338957],[135.39914433245235,35.4486905473099],[135.39902602507874,35.44873484766527],[135.39901316885224,35.448700892292145],[135.39934473663973,35.448577819126626],[135.39936205712524,35.44860906338957]]]}},{"type":"Feature","id":"tran_73f4bea7-1f32-47a4-b305-73e2ef6b81d0-0","properties":{"road_id":"tran_73f4bea7-1f32-47a4-b305-73e2ef6b81d0-0","road_name":"京月中央通線","road_class":"1040","road_function":"4","source":"Project PLATEAU 舞鶴市2025 道路LOD1"},"geometry":{"type":"Polygon","coordinates":[[[135.3990191770892,35.448752120268985],[135.3990748282415,35.44885290230983],[135.39914015318274,35.44897121944299],[135.39908004960068,35.448995167683535],[135.39895677382867,35.44877425422094],[135.3990191770892,35.448752120268985]]]}},{"type":"Feature","id":"tran_afee6882-b367-4b78-9521-6012d490f617-0","properties":{"road_id":"tran_afee6882-b367-4b78-9521-6012d490f617-0","road_name":"亀岩１号線","road_class":"1040","road_function":"4","source":"Project PLATEAU 舞鶴市2025 道路LOD1"},"geometry":{"type":"Polygon","coordinates":[[[135.3989949301571,35.44974372800369],[135.39901770933233,35.449734808573375],[135.39924805682793,35.44964500479637],[135.39936037789914,35.4496207754532],[135.39937841458115,35.449688549520644],[135.3992942076106,35.44970355438953],[135.3992492812218,35.44971000112006],[135.39902579885265,35.44979651294343],[135.3989949301571,35.44974372800369]]]}},{"type":"Feature","id":"tran_c6ebf454-d17b-4b20-9f11-7a3eed8ee0c9-0","properties":{"road_id":"tran_c6ebf454-d17b-4b20-9f11-7a3eed8ee0c9-0","road_name":"青山二号通線","road_class":"1040","road_function":"4","source":"Project PLATEAU 舞鶴市2025 道路LOD1"},"geometry":{"type":"Polygon","coordinates":[[[135.39788582726084,35.448049788471245],[135.39826051015226,35.44791076928876],[135.39842202152005,35.44784847688112],[135.39844448067984,35.44787977690032],[135.39816168081254,35.44798752580323],[135.39815705333422,35.44798750273441],[135.39790394504212,35.448082210314304],[135.39788582726084,35.448049788471245]]]}},{"type":"Feature","id":"tran_e1711469-98a3-4f18-b8cf-dae7c1e5ef04-0","properties":{"road_id":"tran_e1711469-98a3-4f18-b8cf-dae7c1e5ef04-0","road_name":"京月中央通線","road_class":"1040","road_function":"4","source":"Project PLATEAU 舞鶴市2025 道路LOD1"},"geometry":{"type":"Polygon","coordinates":[[[135.39949940977493,35.4497377464351],[135.3994343396903,35.44975146110423],[135.39941869966069,35.44970177608532],[135.39948465289132,35.44968853423558],[135.39949940977493,35.4497377464351]]]}},{"type":"Feature","id":"tran_59569d5a-9409-48e1-9775-8d7578e1fd42-0","properties":{"road_id":"tran_59569d5a-9409-48e1-9775-8d7578e1fd42-0","road_name":"椿川通線","road_class":"1040","road_function":"4","source":"Project PLATEAU 舞鶴市2025 道路LOD1"},"geometry":{"type":"Polygon","coordinates":[[[135.3978737591324,35.44804305799307],[135.39788242219228,35.4480483292641],[135.39788582726084,35.448049788471245],[135.39790394504212,35.448082210314304],[135.39789293443297,35.44808633022591],[135.39788748869447,35.448107575877394],[135.39784169490767,35.44811965321124],[135.3978189807724,35.44806198438481],[135.39781790479768,35.448057788628184],[135.3978737591324,35.44804305799307]]]}},{"type":"Feature","id":"tran_42238b65-d62b-4d86-bdf8-66ab71956774-0","properties":{"road_id":"tran_42238b65-d62b-4d86-bdf8-66ab71956774-0","road_name":"東椿線","road_class":"1040","road_function":"4","source":"Project PLATEAU 舞鶴市2025 道路LOD1"},"geometry":{"type":"Polygon","coordinates":[[[135.39763896711617,35.446433824089645],[135.39762843795654,35.44644700409778],[135.3975734382798,35.44654011372533],[135.39759264263427,35.44654985443116],[135.39755487325144,35.44665152309336],[135.39755104887797,35.44667692322185],[135.39755142363882,35.44670054152333],[135.39746155117032,35.446684748913285],[135.39754113360726,35.44638148896595],[135.39763896711617,35.446433824089645]]]}},{"type":"Feature","id":"tran_d7f48ea1-cbd7-458f-9d8d-f8b6cc33aa14-0","properties":{"road_id":"tran_d7f48ea1-cbd7-458f-9d8d-f8b6cc33aa14-0","road_name":"京月山手通線","road_class":"1040","road_function":"4","source":"Project PLATEAU 舞鶴市2025 道路LOD1"},"geometry":{"type":"Polygon","coordinates":[[[135.39907144741574,35.447287925920314],[135.39907420130012,35.447292412145764],[135.39921122008926,35.44753202271869],[135.3991439452233,35.44755704697183],[135.3990310030759,35.44735403250441],[135.39900762953434,35.44731236204866],[135.39907144741574,35.447287925920314]]]}},{"type":"Feature","id":"tran_98b68aad-ea76-4c4a-a854-8214fa873456-0","properties":{"road_id":"tran_98b68aad-ea76-4c4a-a854-8214fa873456-0","road_name":"京月中央通線","road_class":"1040","road_function":"4","source":"Project PLATEAU 舞鶴市2025 道路LOD1"},"geometry":{"type":"Polygon","coordinates":[[[135.3986557289854,35.44742623836239],[135.3984410917718,35.44750622382733],[135.39836400958995,35.44753609240243],[135.3983625448607,35.44753665996963],[135.39826091475743,35.447516052449785],[135.39833555192538,35.447487799123586],[135.39846538813387,35.44743865046678],[135.3986289778577,35.44737817090855],[135.3986557289854,35.44742623836239]]]}},{"type":"Feature","id":"tran_bd0c5967-09af-43a5-8246-96149f00d7bb-0","properties":{"road_id":"tran_bd0c5967-09af-43a5-8246-96149f00d7bb-0","road_name":"京月中央通線","road_class":"1040","road_function":"4","source":"Project PLATEAU 舞鶴市2025 道路LOD1"},"geometry":{"type":"Polygon","coordinates":[[[135.3994100967192,35.44945264312261],[135.39944870130913,35.449571233254936],[135.3993817880135,35.44958581789575],[135.39937086574906,35.449543578494634],[135.3993473571926,35.44947549761256],[135.39927168149984,35.44934171441849],[135.3994100967192,35.44945264312261]]]}},{"type":"Feature","id":"tran_7f0900be-9dfc-41af-be8c-0d0f94f4db4b-0","properties":{"road_id":"tran_7f0900be-9dfc-41af-be8c-0d0f94f4db4b-0","road_name":null,"road_class":"1040","road_function":"9020","source":"Project PLATEAU 舞鶴市2025 道路LOD1"},"geometry":{"type":"Polygon","coordinates":[[[135.397946563348,35.44634330854154],[135.39796576770198,35.44635304918841],[135.39798040618754,35.44635465454905],[135.39801132123566,35.44634498354756],[135.39807663104517,35.446316915381075],[135.39819688238785,35.44626262017834],[135.39825705944327,35.44624335995558],[135.39830473859934,35.446230887984086],[135.39838268803783,35.4462213611519],[135.39846300039304,35.44618724078271],[135.39847027642662,35.446195625715816],[135.39838812776136,35.44623049230455],[135.39830111788322,35.446243759824604],[135.39825486999118,35.44625632906761],[135.39819677368823,35.446277222164305],[135.398077659148,35.44632692594258],[135.39796961159288,35.44636938352624],[135.39794836144281,35.44636810574933],[135.39793397370673,35.44636140213857],[135.397946563348,35.44634330854154]]]}},{"type":"Feature","id":"tran_2ab710b2-e802-4771-a2a2-13677c2961af-0","properties":{"road_id":"tran_2ab710b2-e802-4771-a2a2-13677c2961af-0","road_name":"京月通線","road_class":"1040","road_function":"4","source":"Project PLATEAU 舞鶴市2025 道路LOD1"},"geometry":{"type":"Polygon","coordinates":[[[135.39818744532826,35.449745633502665],[135.39816337260237,35.449754583573316],[135.3981330139741,35.44970044728117],[135.39815704800384,35.44969142302151],[135.3981871503658,35.449745102304654],[135.39818744532826,35.449745633502665]]]}},{"type":"Feature","id":"tran_b281d956-2131-4300-8348-eb706201f674-0","properties":{"road_id":"tran_b281d956-2131-4300-8348-eb706201f674-0","road_name":"京月山手通線","road_class":"1040","road_function":"4","source":"Project PLATEAU 舞鶴市2025 道路LOD1"},"geometry":{"type":"Polygon","coordinates":[[[135.39947454638747,35.44887221230678],[135.39946375560845,35.44896022228758],[135.39938879540662,35.44895406834606],[135.39936863840106,35.44893900498356],[135.3993494807644,35.44890627866404],[135.39937877086354,35.44889479803295],[135.39940189567938,35.448866247967175],[135.39947454638747,35.44887221230678]]]}},{"type":"Feature","id":"tran_a615c2ef-6baf-42d9-95e1-a791906503ac-0","properties":{"road_id":"tran_a615c2ef-6baf-42d9-95e1-a791906503ac-0","road_name":"京月中央通線","road_class":"1040","road_function":"4","source":"Project PLATEAU 舞鶴市2025 道路LOD1"},"geometry":{"type":"Polygon","coordinates":[[[135.39917331241907,35.44903024525957],[135.39911289442318,35.44905202861465],[135.39908848393833,35.44904604897757],[135.39907399411484,35.449009559785566],[135.39908004960068,35.448995167683535],[135.39914015318274,35.44897121944299],[135.39916534208447,35.44897621231584],[135.39918293901962,35.44900965133244],[135.39917331241907,35.44903024525957]]]}},{"type":"Feature","id":"tran_2dea7c0c-a5df-42fa-a62c-994cc9e85ea7-0","properties":{"road_id":"tran_2dea7c0c-a5df-42fa-a62c-994cc9e85ea7-0","road_name":"椿川通線","road_class":"1040","road_function":"4","source":"Project PLATEAU 舞鶴市2025 道路LOD1"},"geometry":{"type":"Polygon","coordinates":[[[135.3984926138524,35.447171607829134],[135.39848706425235,35.4471754632133],[135.39837496345058,35.447288929622125],[135.3983480156593,35.44731313287135],[135.39819548221217,35.44736484412386],[135.39816619542665,35.44730699855462],[135.39823154700662,35.447288214842246],[135.39829345771506,35.44727292936774],[135.39832189528585,35.447255765302366],[135.398410942202,35.44719094748856],[135.39843569429718,35.44716574175419],[135.39845335850228,35.44714563862392],[135.3984926138524,35.447171607829134]]]}},{"type":"Feature","id":"tran_980a57de-479c-4863-a759-95f4b234f8df-0","properties":{"road_id":"tran_980a57de-479c-4863-a759-95f4b234f8df-0","road_name":"京月通線","road_class":"1040","road_function":"4","source":"Project PLATEAU 舞鶴市2025 道路LOD1"},"geometry":{"type":"Polygon","coordinates":[[[135.39833052288284,35.449626286744135],[135.39844093504334,35.44958482904505],[135.39856929682784,35.44953670338957],[135.39859965537238,35.449590914898906],[135.3983751598003,35.44967509098006],[135.39836069190517,35.449680084690925],[135.39833052288284,35.449626286744135]]]}},{"type":"Feature","id":"tran_39d08789-3804-4689-b438-48dd54e9993c-0","properties":{"road_id":"tran_39d08789-3804-4689-b438-48dd54e9993c-0","road_name":null,"road_class":"1040","road_function":"9020","source":"Project PLATEAU 舞鶴市2025 道路LOD1"},"geometry":{"type":"Polygon","coordinates":[[[135.39818744532826,35.449745633502665],[135.39825484826034,35.44986701925858],[135.39823077811235,35.44987596726279],[135.39816337260237,35.449754583573316],[135.39818744532826,35.449745633502665]]]}},{"type":"Feature","id":"tran_1b7865d9-05e9-4644-bafe-b12c73f790c4-0","properties":{"road_id":"tran_1b7865d9-05e9-4644-bafe-b12c73f790c4-0","road_name":"京月中央通線","road_class":"1040","road_function":"4","source":"Project PLATEAU 舞鶴市2025 道路LOD1"},"geometry":{"type":"Polygon","coordinates":[[[135.39866793120157,35.44812417536852],[135.39860652372684,35.44814577326948],[135.39851599909682,35.44797973687909],[135.39846272628023,35.447885186917986],[135.39852465887333,35.447867016086924],[135.39866793120157,35.44812417536852]]]}},{"type":"Feature","id":"tran_5f1c4c38-cf70-4e44-a790-53e9894b51c3-0","properties":{"road_id":"tran_5f1c4c38-cf70-4e44-a790-53e9894b51c3-0","road_name":"京月通線","road_class":"1040","road_function":"4","source":"Project PLATEAU 舞鶴市2025 道路LOD1"},"geometry":{"type":"Polygon","coordinates":[[[135.39836069190517,35.449680084690925],[135.39833482900124,35.44969014240712],[135.39830449938685,35.44963605805864],[135.39833052288284,35.449626286744135],[135.39836069190517,35.449680084690925]]]}},{"type":"Feature","id":"tran_c50eb93b-69a0-4bdb-ace4-b6a9108d3e63-0","properties":{"road_id":"tran_c50eb93b-69a0-4bdb-ace4-b6a9108d3e63-0","road_name":"東椿線","road_class":"1040","road_function":"4","source":"Project PLATEAU 舞鶴市2025 道路LOD1"},"geometry":{"type":"Polygon","coordinates":[[[135.39792989598695,35.4463010364448],[135.39795132644187,35.446295378314986],[135.39807449616666,35.446248579329534],[135.3981707107893,35.44621219211997],[135.39827585950064,35.44617422685881],[135.39835363004207,35.446144327725094],[135.39839438902655,35.44611442439168],[135.39839717205402,35.44611153758471],[135.39843782779903,35.44615826995432],[135.39836645621716,35.4461970328561],[135.39832931172197,35.44620009275244],[135.39831003222338,35.44620044736364],[135.3982829635329,35.446211489698676],[135.39824415439634,35.446230856442114],[135.39815764500997,35.44626567049031],[135.39805654213416,35.44630762103675],[135.397946563348,35.44634330854154],[135.39792989598695,35.4463010364448]]]}},{"type":"Feature","id":"tran_b4653369-bf58-48cc-82c7-814aaa7b82ca-0","properties":{"road_id":"tran_b4653369-bf58-48cc-82c7-814aaa7b82ca-0","road_name":"京月山手通線","road_class":"1040","road_function":"4","source":"Project PLATEAU 舞鶴市2025 道路LOD1"},"geometry":{"type":"Polygon","coordinates":[[[135.39932708952978,35.447967281401965],[135.39925119464147,35.44797771879072],[135.39923045766915,35.44796661863593],[135.39921038647964,35.44793162157835],[135.39922193826274,35.44792718547922],[135.3992366316955,35.44790661675773],[135.3993124873171,35.44789618476852],[135.39932708952978,35.447967281401965]]]}},{"type":"Feature","id":"tran_bac1f897-454a-44c6-9be5-7ff7436d2d2d-0","properties":{"road_id":"tran_bac1f897-454a-44c6-9be5-7ff7436d2d2d-0","road_name":"京月中央通線","road_class":"1040","road_function":"4","source":"Project PLATEAU 舞鶴市2025 道路LOD1"},"geometry":{"type":"Polygon","coordinates":[[[135.39936445768004,35.44919047206581],[135.3994100967192,35.44945264312261],[135.39927168149984,35.44934171441849],[135.39922257084086,35.449294598641735],[135.39923736597882,35.44927520133796],[135.3992793784821,35.44922502358639],[135.39936445768004,35.44919047206581]]]}},{"type":"Feature","id":"tran_d54c60b2-875a-4cf8-9a79-46f10ba89f28-0","properties":{"road_id":"tran_d54c60b2-875a-4cf8-9a79-46f10ba89f28-0","road_name":"京月中央通線","road_class":"1040","road_function":"4","source":"Project PLATEAU 舞鶴市2025 道路LOD1"},"geometry":{"type":"Polygon","coordinates":[[[135.39917331241907,35.44903024525957],[135.3992793784821,35.44922502358638],[135.3992373659788,35.44927520133796],[135.39911289442318,35.44905202861465],[135.39917331241907,35.44903024525957]]]}},{"type":"Feature","id":"tran_a067ad4e-cc69-4a8e-8c32-1bf5e4aadef8-0","properties":{"road_id":"tran_a067ad4e-cc69-4a8e-8c32-1bf5e4aadef8-0","road_name":"京月山手通線","road_class":"1040","road_function":"4","source":"Project PLATEAU 舞鶴市2025 道路LOD1"},"geometry":{"type":"Polygon","coordinates":[[[135.3992540917918,35.44761308185662],[135.39930505443155,35.44785999478562],[135.39931248731708,35.447896184768496],[135.39923663169546,35.44790661675771],[135.3991763853757,35.44762382117753],[135.3992540917918,35.44761308185662]]]}},{"type":"Feature","id":"tran_18f6abc4-98f2-447c-8ed1-2cf6b6c42c8c-0","properties":{"road_id":"tran_18f6abc4-98f2-447c-8ed1-2cf6b6c42c8c-0","road_name":null,"road_class":"1040","road_function":"9020","source":"Project PLATEAU 舞鶴市2025 道路LOD1"},"geometry":{"type":"Polygon","coordinates":[[[135.3975401658023,35.44634876275767],[135.39752624976205,35.44635992039904],[135.3975112058667,35.446347356291284],[135.39747569878642,35.44632284154465],[135.3973897991354,35.44626442184902],[135.39739639035503,35.44624511270988],[135.3974076916776,35.44625462831137],[135.3974399533504,35.44627119374171],[135.39752793854154,35.44633400907441],[135.3975401658023,35.44634876275767]]]}},{"type":"Feature","id":"tran_1ab902f5-5ea9-401b-8165-9ecea3f3d230-0","properties":{"road_id":"tran_1ab902f5-5ea9-401b-8165-9ecea3f3d230-0","road_name":"椿川通線","road_class":"1040","road_function":"4","source":"Project PLATEAU 舞鶴市2025 道路LOD1"},"geometry":{"type":"Polygon","coordinates":[[[135.39766690701077,35.44925250306825],[135.39775349202046,35.449488918973834],[135.39769548189264,35.44950408907661],[135.39765814486614,35.44940849088306],[135.39760872108,35.44927033068686],[135.39760752058865,35.4492667275412],[135.39766690701077,35.44925250306825]]]}},{"type":"Feature","id":"tran_5bca2661-7f37-4b03-abeb-c885a8296e8a-0","properties":{"road_id":"tran_5bca2661-7f37-4b03-abeb-c885a8296e8a-0","road_name":"椿川通線","road_class":"1040","road_function":"4","source":"Project PLATEAU 舞鶴市2025 道路LOD1"},"geometry":{"type":"Polygon","coordinates":[[[135.39902167181276,35.44720683869564],[135.39907144741574,35.447287925920314],[135.39900762953434,35.44731236204866],[135.39898081235083,35.4473042061713],[135.39895340690003,35.44725555222],[135.39897882194018,35.44724596643581],[135.39897975694063,35.44722406730128],[135.39902167181276,35.44720683869564]]]}},{"type":"Feature","id":"tran_20d17cb5-df17-4976-8560-e52f53772618-0","properties":{"road_id":"tran_20d17cb5-df17-4976-8560-e52f53772618-0","road_name":null,"road_class":"1040","road_function":"9020","source":"Project PLATEAU 舞鶴市2025 道路LOD1"},"geometry":{"type":"Polygon","coordinates":[[[135.39746204885893,35.447744971145305],[135.39746847264468,35.44775051793345],[135.39749016620306,35.44776622007865],[135.3976623083413,35.44787389470427],[135.39766879886213,35.44787509783831],[135.39767300818392,35.44787205442049],[135.39768383988485,35.447881843631286],[135.39767498087622,35.44788819895168],[135.39766198707963,35.44788741395653],[135.39748008224564,35.4477742824853],[135.39745651831754,35.447758210095095],[135.39745082516163,35.447753674728744],[135.39746204885893,35.447744971145305]]]}},{"type":"Feature","id":"tran_c8795dd5-324d-4a5a-8e32-9d8f57c7cb14-0","properties":{"road_id":"tran_c8795dd5-324d-4a5a-8e32-9d8f57c7cb14-0","road_name":"京月中央通線","road_class":"1040","road_function":"4","source":"Project PLATEAU 舞鶴市2025 道路LOD1"},"geometry":{"type":"Polygon","coordinates":[[[135.3984941225142,35.44781106788111],[135.39843065790294,35.44782787807594],[135.39829075682326,35.44757659434668],[135.39835413526347,35.447556538788845],[135.39843781413146,35.447709831592285],[135.3984941225142,35.44781106788111]]]}},{"type":"Feature","id":"tran_8b04f4c1-8243-4cc0-9e26-793fe4b62863-0","properties":{"road_id":"tran_8b04f4c1-8243-4cc0-9e26-793fe4b62863-0","road_name":"椿１号線","road_class":"1040","road_function":"4","source":"Project PLATEAU 舞鶴市2025 道路LOD1"},"geometry":{"type":"Polygon","coordinates":[[[135.39808157609588,35.447175388428384],[135.39802096763015,35.44719450207828],[135.39795631078374,35.44715254443842],[135.39795544062727,35.44715212707018],[135.39798346093593,35.447113009633505],[135.39800386967923,35.44710896500554],[135.39803261958875,35.44709423541826],[135.39803794273138,35.447090743057494],[135.3980776176644,35.44713123650977],[135.39807668687828,35.44715268496228],[135.39808157609588,35.447175388428384]]]}},{"type":"Feature","id":"tran_a6ac7f43-c45b-435d-b0e3-62a06af437d0-0","properties":{"road_id":"tran_a6ac7f43-c45b-435d-b0e3-62a06af437d0-0","road_name":"椿川通線","road_class":"1040","road_function":"4","source":"Project PLATEAU 舞鶴市2025 道路LOD1"},"geometry":{"type":"Polygon","coordinates":[[[135.39846520736288,35.447107658983526],[135.39845002145125,35.447076125690266],[135.39843517789876,35.447042699378024],[135.39842194463557,35.44700026808416],[135.39842058363217,35.44697592375847],[135.3984335185592,35.446940022730104],[135.39844463674007,35.446911413911074],[135.3984502441955,35.44689801113263],[135.39846455462,35.44688465261888],[135.39849857975636,35.44687139052695],[135.39853478953432,35.44686075424318],[135.39858199354396,35.44685296702861],[135.39867173921303,35.446857019635495],[135.39877252673702,35.4468575216028],[135.39881304931194,35.4468594360418],[135.398830566784,35.446873855382115],[135.39892085045165,35.44704259453573],[135.39902167181276,35.44720683869564],[135.39897975694063,35.44722406730128],[135.39897165110386,35.447203114687575],[135.3988180500745,35.44692760606959],[135.39879953051454,35.44691462396233],[135.39875972823856,35.446904871008144],[135.39867166694899,35.44689650018137],[135.39863585132198,35.44689857525938],[135.39859028637446,35.44690799316291],[135.3985004618389,35.44694414211992],[135.39848706085323,35.446983466117324],[135.39848838818347,35.446997534422735],[135.39851016276148,35.447031985889],[135.39853793843827,35.44707870471803],[135.39846520736288,35.447107658983526]]]}},{"type":"Feature","id":"tran_ab42e222-bb1b-4d49-98e6-4faabe1ecfdb-0","properties":{"road_id":"tran_ab42e222-bb1b-4d49-98e6-4faabe1ecfdb-0","road_name":"京月東町６号線","road_class":"1040","road_function":"4","source":"Project PLATEAU 舞鶴市2025 道路LOD1"},"geometry":{"type":"Polygon","coordinates":[[[135.4,35.44920849227589],[135.40022733456786,35.449129230951],[135.40026238456664,35.44914139356943],[135.4003443601967,35.44930224825382],[135.40041490905816,35.4494442972112],[135.40035338686315,35.44946643625772],[135.4002890767284,35.449329826598884],[135.40022882823965,35.449210003843135],[135.4001987337872,35.44919804611411],[135.4,35.44926469592331],[135.399955340545,35.4492796734679],[135.39983163296202,35.449324398460526],[135.3997128392115,35.44940430197786],[135.39964694751865,35.449584612918535],[135.39959728597293,35.44971542807669],[135.39951652318857,35.44973251335565],[135.39957656176935,35.449583902316924],[135.3995848775528,35.44957664241489],[135.39959479172967,35.449561818784055],[135.39963800042372,35.449439715018336],[135.3996615828237,35.44937907859057],[135.39979836293182,35.449280064934904],[135.39980521989622,35.44927640332535],[135.4,35.44920849227589]]]}},{"type":"Feature","id":"tran_3dbd690e-39ee-4c61-b3d9-9419620b06fc-0","properties":{"road_id":"tran_3dbd690e-39ee-4c61-b3d9-9419620b06fc-0","road_name":"舞鶴和知線","road_class":"1040","road_function":"3","source":"Project PLATEAU 舞鶴市2025 道路LOD1"},"geometry":{"type":"Polygon","coordinates":[[[135.3964125858088,35.4477784569275],[135.39638650446201,35.44778270096657],[135.39634248468028,35.447791765185976],[135.39629768305116,35.44780226860541],[135.39624723474748,35.44781661794457],[135.3961897044021,35.44783525941676],[135.3961081961449,35.44786396663213],[135.3960203625353,35.447898591322776],[135.39594589241423,35.44792886600197],[135.39585188679976,35.447963910382235],[135.39582308486897,35.447973276288906],[135.39579019508304,35.447905552112175],[135.39590518224173,35.447863402549046],[135.39597400942841,35.447836614181995],[135.39600627942357,35.44782262380629],[135.39609867856876,35.447781261536015],[135.39617339144652,35.44774810352614],[135.39619977958478,35.44773994271605],[135.39627129505195,35.44772191201032],[135.3963333024659,35.447708520948964],[135.3963932975145,35.447699086812825],[135.3964125858088,35.4477784569275]]]}},{"type":"Feature","id":"tran_a5b6f78e-31dd-42dd-9954-2545a4763a5e-0","properties":{"road_id":"tran_a5b6f78e-31dd-42dd-9954-2545a4763a5e-0","road_name":"舞鶴和知線","road_class":"1040","road_function":"3","source":"Project PLATEAU 舞鶴市2025 道路LOD1"},"geometry":{"type":"Polygon","coordinates":[[[135.3957835456819,35.44789807201945],[135.39578580451175,35.44790345694054],[135.39579019508304,35.447905552112196],[135.39582308486897,35.44797327628892],[135.39579292024538,35.44798308531077],[135.39577722191567,35.447987038081756],[135.39575121789275,35.447917886356976],[135.39575725299687,35.44790628862931],[135.3957564975224,35.44790566920584],[135.3957835456819,35.44789807201945]]]}},{"type":"Feature","id":"tran_642ff3b9-27c4-4202-8dac-d9194457adae-0","properties":{"road_id":"tran_642ff3b9-27c4-4202-8dac-d9194457adae-0","road_name":"舞鶴和知線","road_class":"1040","road_function":"3","source":"Project PLATEAU 舞鶴市2025 道路LOD1"},"geometry":{"type":"Polygon","coordinates":[[[135.3969026166592,35.447689824015285],[135.3969770301704,35.44769659470046],[135.39701125633056,35.447700912049335],[135.3971002484941,35.44771749139043],[135.39701782423506,35.44781997210607],[135.39699459911606,35.447807464227516],[135.3969704404152,35.44779733722293],[135.39693978949762,35.44778627729431],[135.39690790742063,35.44777782523958],[135.3968784875319,35.447772044043624],[135.3969026166592,35.447689824015285]]]}},{"type":"Feature","id":"tran_77c006b9-4464-4f83-957e-7da431a243a6-0","properties":{"road_id":"tran_77c006b9-4464-4f83-957e-7da431a243a6-0","road_name":"椿１号線","road_class":"1040","road_function":"4","source":"Project PLATEAU 舞鶴市2025 道路LOD1"},"geometry":{"type":"Polygon","coordinates":[[[135.39811126328263,35.44724027367579],[135.39812932699442,35.447287705279194],[135.39813213723053,35.44729493041287],[135.398066698733,35.44730918074184],[135.39805960149184,35.44728735765044],[135.3980485743685,35.44725056681286],[135.39811126328263,35.44724027367579]]]}},{"type":"Feature","id":"tran_c398510b-673d-42f1-871e-e3b411f3507e-0","properties":{"road_id":"tran_c398510b-673d-42f1-871e-e3b411f3507e-0","road_name":"亀岩１号線","road_class":"1040","road_function":"4","source":"Project PLATEAU 舞鶴市2025 道路LOD1"},"geometry":{"type":"Polygon","coordinates":[[[135.39847100708897,35.44999999999856],[135.3984474691225,35.44996071206348],[135.39855832491455,35.449916243075386],[135.39858749239895,35.449964927297835],[135.39856776214293,35.44999169042939],[135.39857032718484,35.44999999999857],[135.39857285409389,35.450008186034616],[135.39850877119457,35.45002143084424],[135.39847656313623,35.45000927376583],[135.39847100708897,35.44999999999856]]]}},{"type":"Feature","id":"tran_3e7f4211-6105-4ae9-970c-09bced40c28d-0","properties":{"road_id":"tran_3e7f4211-6105-4ae9-970c-09bced40c28d-0","road_name":null,"road_class":"1040","road_function":"9020","source":"Project PLATEAU 舞鶴市2025 道路LOD1"},"geometry":{"type":"Polygon","coordinates":[[[135.39788297657302,35.44999999999857],[135.39784560429058,35.449820401342144],[135.3978631108297,35.44981860475633],[135.3979008588329,35.44999999999856],[135.39792696547408,35.45012545353492],[135.39790958555784,35.45012787385618],[135.39788297657302,35.44999999999857]]]}},{"type":"Feature","id":"tran_cc18f5e0-cb03-484f-8756-8ead484d3c36-0","properties":{"road_id":"tran_cc18f5e0-cb03-484f-8756-8ead484d3c36-0","road_name":"舞鶴和知線","road_class":"1040","road_function":"3","source":"Project PLATEAU 舞鶴市2025 道路LOD1"},"geometry":{"type":"Polygon","coordinates":[[[135.3965266455145,35.44767631640215],[135.3965851802988,35.44767065980899],[135.39662949209483,35.447666734884635],[135.3967175788776,35.44767177218635],[135.39677042058804,35.44767618352714],[135.39676859721226,35.447765343800604],[135.39669342620525,35.44776431441458],[135.39654956095498,35.447764586918844],[135.39653408065573,35.447765451554396],[135.3965266455145,35.44767631640215]]]}},{"type":"Feature","id":"tran_cef764dd-3b03-4ac3-8229-348084291d6f-0","properties":{"road_id":"tran_cef764dd-3b03-4ac3-8229-348084291d6f-0","road_name":"舞鶴和知線","road_class":"1040","road_function":"3","source":"Project PLATEAU 舞鶴市2025 道路LOD1"},"geometry":{"type":"Polygon","coordinates":[[[135.39687221405515,35.447660105628884],[135.3969026166592,35.447689824015285],[135.3968784875319,35.447772044043624],[135.39686742949797,35.447769871067294],[135.39683693501718,35.44776737510213],[135.39679707093524,35.44776573370533],[135.39676859721226,35.44776534380058],[135.39677042058804,35.44767618352714],[135.39680605142738,35.44765463714908],[135.39680630831612,35.44765303403727],[135.39687221405515,35.447660105628884]]]}},{"type":"Feature","id":"tran_8c442311-a433-467b-a43b-b7c1fd85de0f-0","properties":{"road_id":"tran_8c442311-a433-467b-a43b-b7c1fd85de0f-0","road_name":"舞鶴和知線","road_class":"1040","road_function":"3","source":"Project PLATEAU 舞鶴市2025 道路LOD1"},"geometry":{"type":"Polygon","coordinates":[[[135.39721356840596,35.44779539654051],[135.3972256762583,35.44781141250472],[135.39724225733033,35.447833217896765],[135.3972650236307,35.44786758439383],[135.3972919901948,35.447914951876264],[135.39729751274655,35.44792759891113],[135.39731728393596,35.448023875959464],[135.39732273031998,35.44804688860125],[135.3973302070357,35.448093078010125],[135.3973350358502,35.448139973509356],[135.39733837812213,35.44817911053232],[135.39733982942465,35.44822085214699],[135.39734005617817,35.44829386589064],[135.39734183971314,35.448335519023985],[135.39733797857767,35.448336130722474],[135.39733924373937,35.448402839916746],[135.39734541527991,35.44868320308521],[135.3973483703193,35.44875965572564],[135.39735087875718,35.448822134587736],[135.39735235130843,35.448934905849754],[135.3972698190603,35.44893598083407],[135.39726784016779,35.44883424936001],[135.39726476970736,35.448699566336195],[135.39726361810378,35.44854362008032],[135.3972614246693,35.448497998783935],[135.3972590481742,35.4483882877271],[135.39725485654589,35.4483447296507],[135.3972549849144,35.44832751373787],[135.3972486861065,35.44827123643899],[135.39724489233276,35.448233268066076],[135.39723948314176,35.448160949559366],[135.39724841217833,35.448160092749696],[135.3972431788623,35.448108507096954],[135.39723313240077,35.44806717326168],[135.39721705380958,35.44802229388496],[135.3971987338813,35.44798254214064],[135.39718206819464,35.447957309234596],[135.3971591567999,35.44792762922755],[135.39713520431323,35.44790461430545],[135.39710632459392,35.44787760865536],[135.3971025323154,35.44787490518387],[135.39721356840596,35.44779539654051]]]}},{"type":"Feature","id":"tran_836d33a1-c68d-4e8c-aaee-ea2c42fc54d1-0","properties":{"road_id":"tran_836d33a1-c68d-4e8c-aaee-ea2c42fc54d1-0","road_name":"京月通線","road_class":"1040","road_function":"4","source":"Project PLATEAU 舞鶴市2025 道路LOD1"},"geometry":{"type":"Polygon","coordinates":[[[135.39784560429055,35.44982040134363],[135.39766232427314,35.449837933070235],[135.39765546441294,35.449838603044114],[135.39768282236582,35.44977764220795],[135.39784560429055,35.44982040134363]]]}},{"type":"Feature","id":"tran_2e6dd46e-de68-4b9f-aa77-f0c55fe6146f-0","properties":{"road_id":"tran_2e6dd46e-de68-4b9f-aa77-f0c55fe6146f-0","road_name":"舞鶴和知線","road_class":"1040","road_function":"3","source":"Project PLATEAU 舞鶴市2025 道路LOD1"},"geometry":{"type":"Polygon","coordinates":[[[135.39735235130843,35.448934905849754],[135.39739190832103,35.448948263605224],[135.3974122233589,35.44900118647172],[135.39740809392944,35.4490083778825],[135.39735369752668,35.449064622613825],[135.39727235288692,35.449065688465346],[135.39727054767295,35.44897343751957],[135.3972698190603,35.44893598083407],[135.39735235130843,35.448934905849754]]]}},{"type":"Feature","id":"tran_62a59a68-8eac-482a-9363-9d38b71d7405-0","properties":{"road_id":"tran_62a59a68-8eac-482a-9363-9d38b71d7405-0","road_name":"舞鶴和知線","road_class":"1040","road_function":"3","source":"Project PLATEAU 舞鶴市2025 道路LOD1"},"geometry":{"type":"Polygon","coordinates":[[[135.39577722191567,35.447987038081756],[135.39573569891573,35.44799749338025],[135.39572745752295,35.44792404381122],[135.39575121789275,35.447917886356976],[135.39577722191567,35.447987038081756]]]}},{"type":"Feature","id":"tran_4c32fe7b-4c00-4955-a859-0c73dfb4cb29-0","properties":{"road_id":"tran_4c32fe7b-4c00-4955-a859-0c73dfb4cb29-0","road_name":"舞鶴和知線","road_class":"1040","road_function":"3","source":"Project PLATEAU 舞鶴市2025 道路LOD1"},"geometry":{"type":"Polygon","coordinates":[[[135.3971002484941,35.44771749139043],[135.3971077428253,35.44771698798215],[135.39715525851278,35.4476970341167],[135.39722481940498,35.44770592260423],[135.39722366381045,35.44771197820137],[135.39721855704005,35.447746836509694],[135.39721356840596,35.44779539654051],[135.3971025323154,35.44787490518387],[135.39707882173204,35.447858002176446],[135.39704297695684,35.44783438610832],[135.3970349742125,35.447829208214245],[135.39701782423506,35.44781997210607],[135.3971002484941,35.44771749139043]]]}},{"type":"Feature","id":"tran_45d2a337-e412-47f0-98e2-a41e14078182-0","properties":{"road_id":"tran_45d2a337-e412-47f0-98e2-a41e14078182-0","road_name":"舞鶴和知線","road_class":"1040","road_function":"3","source":"Project PLATEAU 舞鶴市2025 道路LOD1"},"geometry":{"type":"Polygon","coordinates":[[[135.39653408065573,35.447765451554396],[135.39649919774294,35.44776739989475],[135.39644992099298,35.44777238161786],[135.39641258580883,35.4477784569275],[135.39639329751452,35.447699086812825],[135.39642046430538,35.44767515461563],[135.39642593469577,35.44764431295514],[135.39649443798905,35.44765244883736],[135.3965266455145,35.44767631640215],[135.39653408065573,35.447765451554396]]]}},{"type":"Feature","id":"tran_e84e29cd-b4c5-4ca4-96a8-86dee0dc8a46-0","properties":{"road_id":"tran_e84e29cd-b4c5-4ca4-96a8-86dee0dc8a46-0","road_name":"舞鶴和知線","road_class":"1040","road_function":"3","source":"Project PLATEAU 舞鶴市2025 道路LOD1"},"geometry":{"type":"Polygon","coordinates":[[[135.39735369752668,35.449064622613825],[135.39735879541684,35.44926737070323],[135.39736403103063,35.44946642377402],[135.39736777735067,35.44965852870035],[135.39737227467754,35.44977915713934],[135.39728018034594,35.44977941849915],[135.39728093355512,35.44972272482575],[135.39728049583354,35.449678013693934],[135.39727909073073,35.4495266632868],[135.39727637715765,35.44938828636072],[135.39727349894494,35.44912425482575],[135.39727235288692,35.449065688465346],[135.39735369752668,35.449064622613825]]]}},{"type":"Feature","id":"tran_a766e9d0-b898-45a6-bcbf-a8dbe86a5f5b-0","properties":{"road_id":"tran_a766e9d0-b898-45a6-bcbf-a8dbe86a5f5b-0","road_name":"舞鶴和知線","road_class":"1040","road_function":"3","source":"Project PLATEAU 舞鶴市2025 道路LOD1"},"geometry":{"type":"Polygon","coordinates":[[[135.39746656265316,35.449794951400776],[135.39746674452334,35.449859221418585],[135.39737886201874,35.44990033684284],[135.3972568835139,35.44988999288148],[135.39722940683032,35.449866780109026],[135.39723279974697,35.44981064045104],[135.39724633199725,35.449798178694834],[135.3972566345768,35.44979056831841],[135.39728018034594,35.44977941849915],[135.39737227467754,35.44977915713934],[135.39746656265316,35.449794951400776]]]}},{"type":"Feature","id":"tran_04780faa-d098-4fb8-9c28-8309e7019e5f-0","properties":{"road_id":"tran_04780faa-d098-4fb8-9c28-8309e7019e5f-0","road_name":"京月東町７号線","road_class":"1040","road_function":"4","source":"Project PLATEAU 舞鶴市2025 道路LOD1"},"geometry":{"type":"Polygon","coordinates":[[[135.4,35.449608617682784],[135.40034286456117,35.449489008887305],[135.40036947849995,35.44953952879546],[135.4,35.449668010992674],[135.3999909899144,35.449671144153584],[135.39967444040005,35.44977956258991],[135.39962510446804,35.44973719978948],[135.39989678119213,35.44964462571243],[135.4,35.449608617682784]]]}},{"type":"Feature","id":"tran_ccf64406-db6e-4246-8847-52933c9eb145-0","properties":{"road_id":"tran_ccf64406-db6e-4246-8847-52933c9eb145-0","road_name":"亀岩１号線","road_class":"1040","road_function":"4","source":"Project PLATEAU 舞鶴市2025 道路LOD1"},"geometry":{"type":"Polygon","coordinates":[[[135.39834952834755,35.44999999999855],[135.3984474691225,35.449960712063486],[135.39847100708897,35.44999999999856],[135.39847656313623,35.45000927376583],[135.39811028203906,35.45015620364815],[135.39808118821054,35.45010764188606],[135.39834952834755,35.44999999999855]]]}},{"type":"Feature","id":"tran_0bc844e7-2ad2-4363-b030-a62323dd8c98-0","properties":{"road_id":"tran_0bc844e7-2ad2-4363-b030-a62323dd8c98-0","road_name":"京月中央通線","road_class":"1040","road_function":"4","source":"Project PLATEAU 舞鶴市2025 道路LOD1"},"geometry":{"type":"Polygon","coordinates":[[[135.3995124197088,35.44999999999857],[135.3995120116234,35.44999876156475],[135.39947122732875,35.44986875941466],[135.399470381089,35.44986605235095],[135.3995376123045,35.44985198033715],[135.39956228184195,35.44993731144831],[135.39957816677915,35.449987724079065],[135.3995823053838,35.44999999999856],[135.39962929951898,35.450139393892584],[135.39956316081287,35.450153986134566],[135.3995124197088,35.44999999999857]]]}},{"type":"Feature","id":"tran_bfadcc6c-9a3b-48e0-852f-94d0c495e980-0","properties":{"road_id":"tran_bfadcc6c-9a3b-48e0-852f-94d0c495e980-0","road_name":"舞鶴和知線","road_class":"1040","road_function":"3","source":"Project PLATEAU 舞鶴市2025 道路LOD1"},"geometry":{"type":"Polygon","coordinates":[[[135.3972597571645,35.44999999999855],[135.39725935075674,35.44998753559803],[135.39725688351393,35.449889992880024],[135.39737886201874,35.44990033684144],[135.39738448631059,35.44998816030432],[135.39738493366272,35.44999999999855],[135.39739469888667,35.4502584480028],[135.3973952330931,35.450319925465315],[135.39739255081935,35.45039896397584],[135.39738776575268,35.450479163795606],[135.39738299252895,35.45055792144926],[135.39737241712726,35.450690913811144],[135.39735771418094,35.45083082626634],[135.397349566276,35.45093372431613],[135.3973403886374,35.45104175514519],[135.39732910664455,35.45113652503526],[135.39731800944773,35.45120650762511],[135.3973075954161,35.45125873624423],[135.3972967790557,35.4513058249312],[135.39728652227407,35.451336961811144],[135.39727843037488,35.451358464627525],[135.397263032588,35.45139799481814],[135.39714885927185,35.45136243489101],[135.39715355402365,35.45135234261765],[135.39718926154802,35.451232095246766],[135.39719686048787,35.451202838021814],[135.39720451521575,35.45116609953931],[135.39721135339008,35.45109113804968],[135.3972148053675,35.451056632055035],[135.39720743163818,35.451055693846556],[135.3972157740028,35.45092674661334],[135.39722679072906,35.45071984250422],[135.39723425517093,35.45070861240067],[135.39724679006653,35.45057878560223],[135.397260649557,35.45056677527413],[135.3972654269973,35.4503397390011],[135.39726729207757,35.45023735041292],[135.3972622197126,35.450075525586136],[135.3972597571645,35.44999999999855]]]}},{"type":"Feature","id":"tran_cf1de169-479e-4b6d-aeac-7b11038cb2de-0","properties":{"road_id":"tran_cf1de169-479e-4b6d-aeac-7b11038cb2de-0","road_name":"八反田１５号線","road_class":"1040","road_function":"4","source":"Project PLATEAU 舞鶴市2025 道路LOD1"},"geometry":{"type":"Polygon","coordinates":[[[135.3969861238207,35.44999999999856],[135.39699343771764,35.449986207666385],[135.39700003164478,35.44997353100371],[135.3970258914081,35.4499329173399],[135.39703824092365,35.44991657372318],[135.39705743950572,35.44989765028131],[135.39709745198172,35.449864769100394],[135.39712855930702,35.44984428261778],[135.39715663867156,35.44983099212667],[135.39718501891304,35.44982166924754],[135.39723279974697,35.44981064044958],[135.39722940683032,35.44986678010757],[135.39719087288117,35.4498786663279],[135.397167567117,35.44988702301875],[135.39714720795502,35.44989909011858],[135.39711718266133,35.44992219604047],[135.3970952288809,35.449941286010045],[135.39708166027808,35.44995861507317],[135.3970629452253,35.449986554833465],[135.39705626570876,35.44999999999857],[135.3970476234356,35.45001739598641],[135.39703740303065,35.450043666429146],[135.3970270447936,35.45008841287434],[135.3969930773544,35.45027077468078],[135.39696570801945,35.450410353409055],[135.39693603661686,35.450563171960454],[135.39693111500006,35.45058793559693],[135.39692738976427,35.45059999471074],[135.39691335940472,35.4506348985486],[135.3968585354971,35.45077776536734],[135.39685533564597,35.450786237701635],[135.39679018603744,35.45076976295332],[135.396857822692,35.45059279660216],[135.3968653746076,35.450569848889806],[135.3968730576694,35.45052932472893],[135.39691696675953,35.45029905868618],[135.39696179704626,35.45007817167485],[135.39697270408035,35.45003369749248],[135.39697811993625,35.450016507996395],[135.3969823775168,35.450007064668455],[135.3969861238207,35.44999999999856]]]}},{"type":"Feature","id":"tran_ac89acdc-13f8-4247-b2fd-714b888250b0-0","properties":{"road_id":"tran_ac89acdc-13f8-4247-b2fd-714b888250b0-0","road_name":"亀岩４号線","road_class":"1040","road_function":"4","source":"Project PLATEAU 舞鶴市2025 道路LOD1"},"geometry":{"type":"Polygon","coordinates":[[[135.39900173277226,35.44999999999855],[135.3989542224166,35.449847761190064],[135.39901612649538,35.44983482608457],[135.39906767395772,35.44999999999857],[135.3992770921546,35.450671040272304],[135.39921518548957,35.45068397272187],[135.39900173277226,35.44999999999855]]]}}]}
