{"type":"FeatureCollection","features":[{"type":"Feature","properties":{"id":"station-001","name":"丹後神崎駅","route_name":"宮津線","operator":"WILLER　TRAINS","height_m":0.0,"source_year":2025},"geometry":{"type":"Point","coordinates":[135.2936828568,35.5065335832]},"id":"station-001"},{"type":"Feature","properties":{"id":"station-002","name":"四所駅","route_name":"宮津線","operator":"WILLER　TRAINS","height_m":0.0,"source_year":2025},"geometry":{"type":"Point","coordinates":[135.2905565427,35.4461185208]},"id":"station-002"},{"type":"Feature","properties":{"id":"station-003","name":"東舞鶴駅","route_name":"小浜線","operator":"西日本旅客鉄道","height_m":13.7,"source_year":2025},"geometry":{"type":"Point","coordinates":[135.3948115487,35.4685882035]},"id":"station-003"},{"type":"Feature","properties":{"id":"station-004","name":"東雲駅","route_name":"宮津線","operator":"WILLER　TRAINS","height_m":0.0,"source_year":2025},"geometry":{"type":"Point","coordinates":[135.2849528531,35.4750135817]},"id":"station-004"},{"type":"Feature","properties":{"id":"station-005","name":"松尾寺駅","route_name":"小浜線","operator":"西日本旅客鉄道","height_m":0.0,"source_year":2025},"geometry":{"type":"Point","coordinates":[135.4502828723,35.4859735715]},"id":"station-005"},{"type":"Feature","properties":{"id":"station-006","name":"真倉駅","route_name":"舞鶴線","operator":"西日本旅客鉄道","height_m":7.1,"source_year":2025},"geometry":{"type":"Point","coordinates":[135.3259199644,35.4070013849]},"id":"station-006"},{"type":"Feature","properties":{"id":"station-007","name":"西舞鶴駅","route_name":"舞鶴線","operator":"西日本旅客鉄道","height_m":16.5,"source_year":2025},"geometry":{"type":"Point","coordinates":[135.3305425686,35.4417242947]},"id":"station-007"}]}
