{"type":"FeatureCollection","features":[{"type":"Feature","properties":{"id":"station-001","name":"六会日大前","route_name":"江ノ島線","operator":"小田急電鉄","height_m":10.474,"source_year":2025},"geometry":{"type":"Point","coordinates":[139.4707283361,35.3837631769]},"id":"station-001"},{"type":"Feature","properties":{"id":"station-002","name":"善行","route_name":"江ノ島線","operator":"小田急電鉄","height_m":null,"source_year":2025},"geometry":{"type":"Point","coordinates":[139.4732733329,35.362593175]},"id":"station-002"},{"type":"Feature","properties":{"id":"station-003","name":"本鵠沼","route_name":"江ノ島線","operator":"小田急電鉄","height_m":null,"source_year":2025},"geometry":{"type":"Point","coordinates":[139.4752983272,35.3310381729]},"id":"station-003"},{"type":"Feature","properties":{"id":"station-004","name":"柳小路","route_name":"江ノ島電鉄線","operator":"江ノ島電鉄","height_m":null,"source_year":2025},"geometry":{"type":"Point","coordinates":[139.485233329,35.3272931712]},"id":"station-004"},{"type":"Feature","properties":{"id":"station-005","name":"江ノ島","route_name":"江ノ島電鉄線","operator":"江ノ島電鉄","height_m":null,"source_year":2025},"geometry":{"type":"Point","coordinates":[139.4876333272,35.31102817]},"id":"station-005"},{"type":"Feature","properties":{"id":"station-006","name":"湘南台","route_name":"1号線","operator":"横浜市","height_m":null,"source_year":2025},"geometry":{"type":"Point","coordinates":[139.4661283344,35.3962431818]},"id":"station-006"},{"type":"Feature","properties":{"id":"station-007","name":"湘南台","route_name":"江ノ島線","operator":"小田急電鉄","height_m":7.556,"source_year":2025},"geometry":{"type":"Point","coordinates":[139.4664783379,35.3965481784]},"id":"station-007"},{"type":"Feature","properties":{"id":"station-008","name":"湘南江の島","route_name":"江の島線","operator":"湘南モノレール","height_m":20.557,"source_year":2025},"geometry":{"type":"Point","coordinates":[139.4878233267,35.3118781699]},"id":"station-008"},{"type":"Feature","properties":{"id":"station-009","name":"湘南海岸公園","route_name":"江ノ島電鉄線","operator":"江ノ島電鉄","height_m":null,"source_year":2025},"geometry":{"type":"Point","coordinates":[139.4833283274,35.3152031706]},"id":"station-009"},{"type":"Feature","properties":{"id":"station-010","name":"片瀬江ノ島","route_name":"江ノ島線","operator":"小田急電鉄","height_m":6.835,"source_year":2025},"geometry":{"type":"Point","coordinates":[139.4829333292,35.3093131715]},"id":"station-010"},{"type":"Feature","properties":{"id":"station-011","name":"目白山下","route_name":"江の島線","operator":"湘南モノレール","height_m":13.228,"source_year":2025},"geometry":{"type":"Point","coordinates":[139.4915233273,35.3140731699]},"id":"station-011"},{"type":"Feature","properties":{"id":"station-012","name":"石上","route_name":"江ノ島電鉄線","operator":"江ノ島電鉄","height_m":null,"source_year":2025},"geometry":{"type":"Point","coordinates":[139.4855883296,35.3324631716]},"id":"station-012"},{"type":"Feature","properties":{"id":"station-013","name":"藤沢","route_name":"東海道線","operator":"東日本旅客鉄道","height_m":null,"source_year":2025},"geometry":{"type":"Point","coordinates":[139.4864283293,35.3388331837]},"id":"station-013"},{"type":"Feature","properties":{"id":"station-014","name":"藤沢","route_name":"江ノ島線","operator":"小田急電鉄","height_m":5.812,"source_year":2025},"geometry":{"type":"Point","coordinates":[139.4871283308,35.338598174]},"id":"station-014"},{"type":"Feature","properties":{"id":"station-015","name":"藤沢","route_name":"江ノ島電鉄線","operator":"江ノ島電鉄","height_m":29.714,"source_year":2025},"geometry":{"type":"Point","coordinates":[139.4872283295,35.3372581719]},"id":"station-015"},{"type":"Feature","properties":{"id":"station-016","name":"藤沢本町","route_name":"江ノ島線","operator":"小田急電鉄","height_m":null,"source_year":2025},"geometry":{"type":"Point","coordinates":[139.4758483318,35.3482131738]},"id":"station-016"},{"type":"Feature","properties":{"id":"station-017","name":"辻堂","route_name":"東海道線","operator":"東日本旅客鉄道","height_m":7.424,"source_year":2025},"geometry":{"type":"Point","coordinates":[139.4459033233,35.3368481905]},"id":"station-017"},{"type":"Feature","properties":{"id":"station-018","name":"長後","route_name":"江ノ島線","operator":"小田急電鉄","height_m":9.86,"source_year":2025},"geometry":{"type":"Point","coordinates":[139.4653333389,35.4122531796]},"id":"station-018"},{"type":"Feature","properties":{"id":"station-019","name":"鵠沼","route_name":"江ノ島電鉄線","operator":"江ノ島電鉄","height_m":5.277,"source_year":2025},"geometry":{"type":"Point","coordinates":[139.4826783276,35.3214031711]},"id":"station-019"},{"type":"Feature","properties":{"id":"station-020","name":"鵠沼海岸","route_name":"江ノ島線","operator":"小田急電鉄","height_m":null,"source_year":2025},"geometry":{"type":"Point","coordinates":[139.4712283274,35.3207531723]},"id":"station-020"}]}
